Code,Name,LAT,LONG,X,Y
ABW,Abbey Wood,51.49,0.12,1408.76,130.43
ABE,Aber,51.57,-3.23,-2828.21,-41.11
ACY,Abercynon,51.64,-3.33,-2951.09,-183.21
ABA,Aberdare,51.72,-3.44,-3097.92,-326.55
ABD,Aberdeen,57.14,-2.10,-1396.11,-11386.09
AUR,Aberdour,56.05,-3.30,-2917.64,-9168.33
AVY,Aberdovey,52.54,-4.06,-3874.42,-2015.47
ABH,Abererch,52.90,-4.37,-4275.48,-2738.02
AGV,Abergavenny,51.82,-3.01,-2549.75,-533.63
AGL,Abergele & Pensarn,53.29,-3.58,-3274.38,-3544.85
AYW,Aberystwyth,52.41,-4.08,-3905.82,-1750.77
ACR,Accrington,53.75,-2.37,-1740.77,-4479.28
AAT,Achanalt,57.61,-4.91,-4958.45,-12337.12
ACN,Achnasheen,57.58,-5.07,-5158.46,-12274.54
ACH,Achnashellach,57.48,-5.33,-5488.16,-12076.81
ACK,Acklington,55.31,-1.65,-832.50,-7645.34
ACL,Acle,52.63,1.54,3209.20,-2200.34
ACG,Acocks Green,52.45,-1.82,-1043.89,-1822.64
ACB,Acton Bridge,53.27,-2.60,-2035.02,-3486.57
ACC,Acton Central,51.51,-0.26,923.19,93.74
AML,Acton Main Line,51.52,-0.27,918.11,77.13
ADD,Adderley Park,52.48,-1.86,-1090.63,-1891.43
ADW,Addiewell,55.84,-3.61,-3304.59,-8738.06
ASN,Addlestone,51.37,-0.48,643.90,370.29
ADM,Adisham,51.24,1.20,2773.10,638.92
ADC,Adlington (Cheshire),53.32,-2.13,-1441.74,-3595.75
ADL,Adlington (Lancs),53.61,-2.60,-2035.52,-4193.50
AWK,Adwick,53.57,-1.18,-237.63,-4112.16
AIG,Aigburth,53.36,-2.93,-2445.41,-3687.46
ANS,Ainsdale,53.60,-3.04,-2591.49,-4170.86
AIN,Aintree,53.47,-2.96,-2482.72,-3910.42
AIR,Airbles,55.78,-3.99,-3794.87,-8614.63
ADR,Airdrie,55.86,-3.98,-3780.60,-8779.97
AYP,Albany Park,51.44,0.13,1416.46,242.43
ALB,Albrighton,52.64,-2.27,-1612.91,-2206.96
ALD,Alderley Edge,53.30,-2.24,-1572.30,-3563.61
AMT,Aldermaston,51.40,-1.14,-183.62,311.28
AHT,Aldershot,51.25,-0.76,295.59,628.30
AGT,Aldrington,50.84,-0.18,1027.41,1463.78
AAP,Alexandra Palace,51.60,-0.12,1104.64,-88.64
AXP,Alexandra Parade,55.86,-4.21,-4069.62,-8779.34
ALX,Alexandria,55.99,-4.58,-4532.56,-9026.71
ALF,Alfreton,53.10,-1.37,-475.66,-3149.31
ALW,Allens West,54.52,-1.36,-467.74,-6050.01
ALO,Alloa,56.12,-3.79,-3536.71,-9297.10
ASS,Alness,57.69,-4.25,-4118.06,-12509.42
ALM,Alnmouth,55.39,-1.64,-813.58,-7819.16
ALR,Alresford,51.85,1.00,2517.13,-609.66
ASG,Alsager,53.09,-2.30,-1650.48,-3133.61
ALN,Althorne,51.65,0.75,2208.28,-189.67
ALP,Althorpe,53.59,-0.73,330.08,-4137.15
ABC,Altnabreac,58.39,-3.71,-3429.48,-13923.34
AON,Alton,51.15,-0.97,33.72,820.75
ALT,Altrincham,53.39,-2.35,-1712.03,-3734.06
ALV,Alvechurch,52.35,-1.97,-1231.92,-1612.27
AMB,Ambergate,53.06,-1.48,-616.05,-3067.98
AMY,Amberley,50.90,-0.54,571.13,1340.91
AMR,Amersham,51.67,-0.61,488.17,-243.32
AMF,Ammanford,51.80,-4.00,-3798.14,-491.43
ANC,Ancaster,52.99,-0.54,579.19,-2920.04
AND,Anderston,55.86,-4.27,-4146.14,-8771.60
ADV,Andover,51.21,-1.49,-630.66,699.35
ANZ,Anerley,51.41,-0.07,1173.23,288.78
AGR,Angel Road,51.61,-0.05,1194.89,-117.41
ANG,Angmering,50.82,-0.49,637.65,1504.11
ANN,Annan,54.98,-3.26,-2869.62,-6986.69
ANL,Anniesland,55.89,-4.32,-4209.01,-8831.97
AFV,Ansdell & Fairhaven,53.74,-2.99,-2528.75,-4455.58
APP,Appleby,54.58,-2.49,-1888.34,-6164.60
APD,Appledore (Kent),51.03,0.82,2289.04,1062.66
APF,Appleford,51.64,-1.24,-314.35,-172.90
APB,Appley Bridge,53.58,-2.72,-2181.99,-4124.43
APS,Apsley,51.73,-0.46,671.13,-362.14
ARB,Arbroath,56.56,-2.59,-2017.65,-10197.24
ARD,Ardgay,57.88,-4.36,-4260.79,-12889.68
AUI,Ardlui,56.30,-4.72,-4714.90,-9672.34
ADS,Ardrossan Harbour,55.64,-4.82,-4840.69,-8323.34
ASB,Ardrossan South Beach,55.64,-4.80,-4815.52,-8326.49
ADN,Ardrossan Town,55.64,-4.81,-4830.02,-8323.01
ADK,Ardwick,53.47,-2.21,-1543.32,-3905.03
AGS,Argyle Street,55.86,-4.25,-4119.26,-8766.39
ARG,Arisaig,56.91,-5.84,-6128.11,-10916.39
ARL,Arlesey,52.03,-0.27,919.78,-960.19
AWT,Armathwaite,54.81,-2.77,-2248.77,-6630.69
ARN,Arnside,54.20,-2.83,-2319.70,-5393.92
ARR,Arram,53.88,-0.43,716.74,-4746.96
ART,Arrochar & Tarbet,56.20,-4.72,-4716.31,-9472.69
ARU,Arundel,50.85,-0.55,565.84,1439.66
ACT,Ascot,51.41,-0.68,401.86,302.65
AUW,Ascott-under-Wychwood,51.87,-1.56,-721.48,-636.83
ASH,Ash,51.25,-0.71,355.10,621.82
AHV,Ash Vale,51.27,-0.72,343.92,575.67
ABY,Ashburys,53.47,-2.19,-1518.55,-3905.10
ASC,Ashchurch for Tewkesbury,52.00,-2.11,-1410.75,-905.43
ASF,Ashfield,55.89,-4.25,-4117.40,-8830.78
AFK,Ashford International,51.14,0.88,2364.74,837.57
ASI,Ashford International (Eurostar),51.14,0.88,2363.20,843.29
AFS,Ashford (Surrey),51.44,-0.47,664.63,240.99
ASY,Ashley,53.36,-2.34,-1704.11,-3670.00
AHD,Ashtead,51.32,-0.31,866.87,482.69
AHN,Ashton-under-Lyne,53.49,-2.09,-1390.95,-3945.62
AHS,Ashurst,51.13,0.15,1449.66,868.24
ANF,Ashurst New Forest,50.89,-1.53,-674.16,1354.83
AWM,Ashwell & Morden,52.03,-0.11,1117.75,-969.84
ASK,Askam,54.19,-3.20,-2796.19,-5367.30
ALK,Aslockton,52.95,-0.90,120.20,-2845.59
ASP,Aspatria,54.76,-3.33,-2957.08,-6529.24
APG,Aspley Guise,52.02,-0.63,456.88,-950.42
AST,Aston,52.51,-1.87,-1110.66,-1936.35
ATH,Atherstone,52.58,-1.55,-707.26,-2086.80
ATN,Atherton,53.53,-2.48,-1877.58,-4022.50
ATT,Attadale,57.39,-5.46,-5644.25,-11898.96
ATB,Attenborough,52.91,-1.23,-300.60,-2753.85
ATL,Attleborough,52.51,1.02,2549.98,-1954.94
AUK,Auchinleck,55.47,-4.30,-4175.76,-7977.79
AUD,Audley End,52.00,0.21,1518.59,-916.19
AUG,Aughton Park,53.55,-2.90,-2404.83,-4074.39
AVM,Aviemore,57.19,-3.83,-3585.13,-11479.82
AVF,Avoncliff,51.34,-2.28,-1628.63,438.35
AVN,Avonmouth,51.50,-2.70,-2156.12,111.37
AXM,Axminster,50.78,-3.01,-2544.14,1581.51
AYS,Aylesbury,51.81,-0.82,225.73,-527.94
AVP,Aylesbury Vale Parkway,0.00,0.00,1256.59,105042.88
AYL,Aylesford,51.30,0.47,1846.16,516.45
AYH,Aylesham,51.23,1.21,2786.20,667.34
AYR,Ayr,55.46,-4.63,-4594.97,-7953.22
BAC,Bache,53.21,-2.89,-2401.40,-3371.14
BAJ,Baglan,51.62,-3.81,-3563.41,-123.78
BAG,Bagshot,51.36,-0.69,385.64,387.97
BLD,Baildon,53.85,-1.75,-961.34,-4675.88
BIO,Baillieston,55.84,-4.11,-3947.04,-8740.71
BAB,Balcombe,51.06,-0.14,1083.41,1017.27
BDK,Baldock,51.99,-0.19,1019.38,-892.62
BAL,Balham,51.44,-0.15,1063.82,227.30
BHC,Balloch,56.00,-4.58,-4540.15,-9063.06
BSI,Balmossie,56.47,-2.84,-2333.85,-10024.03
BMB,Bamber Bridge,53.73,-2.66,-2108.50,-4425.45
BAM,Bamford,53.34,-1.69,-879.60,-3635.37
BNV,Banavie,56.84,-5.10,-5187.61,-10775.32
BAN,Banbury,52.06,-1.33,-423.11,-1030.01
BNG,Bangor (Gwynedd),53.22,-4.14,-3974.09,-3397.56
BAH,Bank Hall,53.44,-2.99,-2521.67,-3836.65
BAD,Banstead,51.33,-0.21,987.01,459.33
BSS,Barassie,55.56,-4.65,-4625.72,-8162.76
ZBB,Barbican,51.52,-0.10,1133.36,71.51
BLL,Bardon Mill,54.97,-2.35,-1711.04,-6967.66
BAR,Bare Lane,54.08,-2.84,-2330.04,-5135.61
BGI,Bargeddie,55.85,-4.07,-3892.96,-8755.01
BGD,Bargoed,51.69,-3.23,-2828.02,-280.20
BKG,Barking,51.54,0.08,1358.77,30.04
ZBK,Barking Underground,0.00,0.00,1256.59,105042.88
BRT,Barlaston,52.94,-2.17,-1485.44,-2828.25
BMG,Barming,51.28,0.48,1862.34,549.91
BRM,Barmouth,52.72,-4.06,-3873.83,-2380.06
BNH,Barnehurst,51.46,0.16,1460.05,183.24
BNS,Barnes,51.47,-0.24,952.14,178.72
BNI,Barnes Bridge,51.47,-0.25,937.80,169.22
BTB,Barnetby,53.57,-0.41,738.43,-4114.64
BAA,Barnham,50.83,-0.64,447.58,1474.93
BNL,Barnhill,55.88,-4.22,-4084.79,-8808.20
BNY,Barnsley,53.55,-1.48,-611.48,-4074.68
BNP,Barnstaple,51.07,-4.06,-3882.10,979.68
BTG,Barnt Green,52.36,-1.99,-1263.29,-1642.85
BRR,Barrhead,55.80,-4.40,-4304.67,-8657.24
BRL,Barrhill,55.10,-4.78,-4790.95,-7217.26
BAV,Barrow Haven,53.70,-0.39,761.53,-4365.06
BWS,Barrow Upon Soar,52.75,-1.15,-197.28,-2435.83
BIF,Barrow-in-Furness,54.12,-3.23,-2823.51,-5224.60
BRY,Barry,51.40,-3.28,-2897.96,321.93
BYD,Barry Docks,51.40,-3.26,-2867.26,310.40
BYI,Barry Island,51.39,-3.27,-2883.27,330.83
BYL,Barry Links,56.49,-2.75,-2215.58,-10061.90
BAU,Barton-on-Humber,53.69,-0.44,696.01,-4348.14
BSO,Basildon,51.57,0.46,1834.30,-27.15
BSK,Basingstoke,51.27,-1.09,-118.47,583.60
BBL,Bat & Ball,51.29,0.19,1502.24,539.99
BTH,Bath Spa,51.38,-2.36,-1724.36,360.85
BHG,Bathgate,55.90,-3.64,-3348.16,-8851.57
BTL,Batley,53.71,-1.62,-795.69,-4389.51
BTT,Battersby,54.46,-1.09,-125.71,-5914.67
BAK,Battersea Park,51.48,-0.15,1069.21,157.81
BAT,Battle,50.91,0.49,1882.25,1307.82
BLB,Battlesbridge,51.62,0.57,1972.16,-142.79
BAY,Bayford,51.76,-0.10,1135.68,-413.48
BCF,Beaconsfield,51.61,-0.64,442.35,-115.13
BER,Bearley,52.24,-1.75,-956.98,-1405.13
BRN,Bearsden,55.92,-4.33,-4223.25,-8888.31
BSD,Bearsted,51.28,0.58,1987.07,568.40
BSL,Beasdale,56.90,-5.76,-6032.91,-10889.91
BEU,Beaulieu Road,50.86,-1.50,-646.49,1425.74
BEL,Beauly,57.48,-4.47,-4396.57,-12068.97
BEB,Bebington,53.36,-3.00,-2542.13,-3673.38
BCC,Beccles,52.46,1.57,3241.55,-1841.40
BEC,Beckenham Hill,51.42,-0.02,1235.71,264.81
BKJ,Beckenham Junction,51.41,-0.03,1222.25,291.93
BDM,Bedford,52.14,-0.48,650.23,-1184.64
BSJ,Bedford St Johns,52.13,-0.47,665.33,-1170.97
BDH,Bedhampton,50.85,-1.00,-2.84,1427.96
BMT,Bedminster,51.44,-2.59,-2024.26,233.70
BEH,Bedworth,52.48,-1.47,-599.23,-1883.73
BDW,Bedwyn,51.38,-1.60,-765.42,356.87
BEE,Beeston,52.92,-1.21,-270.75,-2783.20
BKS,Bekesbourne,51.26,1.14,2694.20,597.85
BLV,Belle Vue,53.46,-2.18,-1500.97,-3886.28
BLG,Bellgrove,55.86,-4.23,-4087.33,-8766.01
BGM,Bellingham,51.43,-0.02,1230.75,246.35
BLH,Bellshill,55.82,-4.03,-3834.07,-8683.35
BLM,Belmont,51.34,-0.20,1004.30,429.19
BLP,Belper,53.02,-1.48,-618.48,-2994.73
BEG,Beltring,51.20,0.40,1766.89,713.29
BVD,Belvedere,51.49,0.15,1448.92,127.94
BEM,Bempton,54.13,-0.18,1028.40,-5243.53
BEY,Ben Rhydding,53.93,-1.80,-1016.63,-4831.71
BEF,Benfleet,51.54,0.56,1967.00,22.08
BEN,Bentham,54.12,-2.51,-1918.98,-5218.06
BTY,Bentley,51.18,-0.87,158.66,761.12
BYK,Bentley (South Yorks),53.54,-1.15,-199.79,-4052.39
BAS,Bere Alston,50.49,-4.20,-4055.68,2178.49
BFE,Bere Ferrers,50.45,-4.18,-4032.26,2249.25
BKM,Berkhamsted,51.76,-0.56,545.82,-424.52
BKW,Berkswell,52.40,-1.64,-821.13,-1713.76
BYA,Berney Arms,52.59,1.63,3318.55,-2108.86
BBW,Berry Brow,53.62,-1.79,-1011.58,-4210.02
BRS,Berrylands,51.40,-0.28,901.57,317.32
BRK,Berwick,50.84,0.17,1466.56,1455.62
BWK,Berwick-upon-Tweed,55.77,-2.01,-1286.89,-8598.33
BES,Bescar Lane,53.62,-2.91,-2429.63,-4215.12
BSC,Bescot Stadium,52.56,-1.99,-1261.57,-2053.72
BTO,Betchworth,51.25,-0.27,918.94,624.69
BET,Bethnal Green,51.52,-0.06,1181.02,61.78
BYC,Betws-y-Coed,53.09,-3.80,-3550.40,-3132.25
BEV,Beverley,53.84,-0.42,720.50,-4660.82
BEX,Bexhill,50.84,0.48,1859.90,1454.27
BXY,Bexley,51.44,0.15,1444.05,232.24
BXH,Bexleyheath,51.46,0.13,1425.38,185.89
BCS,Bicester North,51.90,-1.15,-198.30,-710.49
BIT,Bicester Town,51.89,-1.15,-195.38,-690.12
BKL,Bickley,51.40,0.04,1312.56,314.58
BID,Bidston,53.41,-3.08,-2636.90,-3778.26
BIW,Biggleswade,52.08,-0.26,926.27,-1079.68
BBK,Bilbrook,52.62,-2.19,-1508.17,-2177.98
BIC,Billericay,51.63,0.42,1786.04,-150.99
BIL,Billingham,54.61,-1.28,-360.39,-6217.51
BIG,Billingshurst,51.02,-0.45,687.10,1099.41
BIN,Bingham,52.95,-0.95,52.52,-2852.07
BIY,Bingley,53.85,-1.84,-1066.61,-4673.26
BCG,Birchgrove,51.52,-3.20,-2794.85,67.33
BCH,Birchington-on-sea,51.38,1.30,2902.51,361.22
BWD,Birchwood,53.41,-2.53,-1940.61,-3784.00
BIK,Birkbeck,51.40,-0.06,1185.47,307.43
BDL,Birkdale,53.63,-3.01,-2556.14,-4235.45
BKC,Birkenhead Central,53.39,-3.02,-2562.08,-3737.21
BKN,Birkenhead North,53.40,-3.06,-2610.12,-3769.49
BKP,Birkenhead Park,53.40,-3.04,-2587.08,-3755.18
BHI,Birmingham International,52.45,-1.73,-926.12,-1825.66
BMO,Birmingham Moor Street,52.48,-1.89,-1136.83,-1883.27
BHM,Birmingham New Street,52.48,-1.90,-1144.28,-1881.45
BSW,Birmingham Snow Hill,52.48,-1.90,-1146.13,-1892.44
BIA,Bishop Auckland,54.66,-1.68,-865.04,-6321.72
BBG,Bishopbriggs,55.90,-4.22,-4086.67,-8861.25
BIS,Bishops Stortford,51.87,0.16,1465.15,-635.52
BIP,Bishopstone,50.78,0.08,1361.26,1578.35
BPT,Bishopton,55.90,-4.50,-4436.57,-8857.75
BTE,Bitterne,50.92,-1.38,-484.90,1296.54
BBN,Blackburn,53.75,-2.48,-1878.78,-4465.67
BKH,Blackheath,51.47,0.01,1267.09,181.38
BHO,Blackhorse Road,51.59,-0.04,1204.42,-64.02
BPN,Blackpool North,53.82,-3.05,-2599.85,-4619.30
BPB,Blackpool Pleasure Beach,53.79,-3.05,-2605.59,-4550.67
BPS,Blackpool South,53.80,-3.05,-2599.58,-4571.82
BLK,Blackrod,53.59,-2.57,-1993.11,-4149.88
BAW,Blackwater,51.33,-0.78,273.88,454.31
BFF,Blaenau Ffestiniog,52.99,-3.94,-3724.58,-2933.56
BLA,Blair Atholl,56.77,-3.85,-3612.80,-10616.89
BAI,Blairhill,55.87,-4.04,-3855.56,-8785.30
BKT,Blake Street,52.60,-1.84,-1076.68,-2139.60
BKD,Blakedown,52.41,-2.18,-1495.86,-1734.73
BLT,Blantyre,55.80,-4.09,-3911.52,-8644.64
BLO,Blaydon,54.97,-1.71,-909.33,-6949.92
BSB,Bleasby,53.04,-0.94,64.63,-3029.57
BLY,Bletchley,52.00,-0.74,325.37,-897.64
BLX,Bloxwich,52.62,-2.01,-1287.34,-2166.73
BWN,Bloxwich North,52.63,-2.02,-1297.06,-2181.94
BLN,Blundellsands & Crosby,53.49,-3.04,-2587.95,-3938.31
BYB,Blythe Bridge,52.97,-2.07,-1357.51,-2879.76
BOD,Bodmin Parkway,50.45,-4.66,-4640.69,2259.44
BOR,Bodorgan,53.20,-4.42,-4330.91,-3360.93
BOG,Bognor Regis,50.79,-0.68,401.42,1565.27
BGS,Bogston,55.94,-4.71,-4701.93,-8928.82
BON,Bolton,53.57,-2.43,-1811.37,-4114.47
BTD,Bolton-on-Dearne,53.52,-1.31,-402.99,-4002.12
BKA,Bookham,51.29,-0.38,770.93,542.07
BOC,Bootle,54.29,-3.39,-3036.96,-5573.73
BNW,Bootle New Strand,53.45,-3.00,-2531.64,-3867.65
BOT,Bootle Oriel Road,53.45,-3.00,-2531.48,-3856.66
BBS,Bordesley,52.47,-1.88,-1118.23,-1868.58
BRG,Borough Green & Wrotham,51.29,0.31,1643.92,532.95
BRH,Borth,52.49,-4.05,-3865.71,-1907.62
BOH,Bosham,50.84,-0.85,184.83,1450.80
BSN,Boston,52.98,-0.03,1217.38,-2900.04
BOE,Botley,50.92,-1.26,-335.43,1299.89
BTF,Bottesford,52.95,-0.80,249.86,-2832.57
BNE,Bourne End,51.58,-0.71,358.05,-45.50
BMH,Bournemouth,50.73,-1.86,-1100.75,1685.54
BRV,Bournville,52.43,-1.93,-1179.77,-1777.08
BWB,Bow Brickhill,52.00,-0.70,376.26,-915.91
BOP,Bowes Park,51.61,-0.12,1105.11,-106.95
BWG,Bowling,55.93,-4.49,-4426.77,-8916.68
BXW,Boxhill & Westhumble,51.25,-0.33,841.16,612.83
BCE,Bracknell,51.41,-0.75,305.91,288.69
BDQ,Bradford Forster Square,53.80,-1.75,-960.39,-4568.38
BDI,Bradford Interchange,53.79,-1.75,-956.13,-4556.46
BOA,Bradford-on-Avon,51.34,-2.25,-1591.96,427.62
BDN,Brading,50.68,-1.14,-183.56,1785.73
BTR,Braintree,51.88,0.56,1960.65,-653.26
BTP,Braintree Freeport,51.87,0.57,1974.24,-640.23
BML,Bramhall,53.36,-2.16,-1478.00,-3678.09
BLE,Bramley,53.81,-1.64,-815.14,-4586.83
BMY,Bramley (Hants),51.33,-1.06,-85.25,457.84
BMP,Brampton (Cumbria),54.93,-2.70,-2162.94,-6882.37
BRP,Brampton (Suffolk),52.40,1.54,3209.07,-1712.86
BCN,Branchton,55.94,-4.80,-4818.47,-8936.07
BND,Brandon,52.45,0.62,2046.69,-1832.21
BSM,Branksome,50.73,-1.92,-1170.63,1685.43
BYS,Braystones,54.44,-3.54,-3224.74,-5877.70
BDY,Bredbury,53.42,-2.11,-1411.70,-3806.42
BRC,Breich,55.83,-3.67,-3382.50,-8705.26
BFD,Brentford,51.49,-0.31,865.71,136.37
BRE,Brentwood,51.61,0.30,1636.19,-119.93
BWO,Bricket Wood,51.71,-0.36,802.41,-306.94
BEA,Bridge of Allan,56.16,-3.96,-3748.14,-9376.24
BRO,Bridge of Orchy,56.52,-4.76,-4767.17,-10108.16
BGN,Bridgend,51.51,-3.58,-3265.11,97.41
BDG,Bridgeton,55.85,-4.23,-4088.16,-8749.32
BWT,Bridgwater,51.13,-2.99,-2525.24,869.43
BDT,Bridlington,54.08,-0.20,1005.27,-5153.57
BRF,Brierfield,53.82,-2.24,-1572.49,-4624.64
BGG,Brigg,53.55,-0.49,641.79,-4063.55
BGH,Brighouse,53.70,-1.78,-993.88,-4367.24
BTN,Brighton,50.83,-0.14,1077.98,1478.88
BMD,Brimsdown,51.66,-0.03,1217.33,-204.76
BNT,Brinnington,53.43,-2.13,-1438.37,-3822.86
BPW,Bristol Parkway,51.51,-2.54,-1959.13,83.43
BRI,Bristol Temple Meads,51.45,-2.58,-2008.02,215.25
BHD,Brithdir,51.71,-3.23,-2826.80,-316.86
RBS,British Steel Redcar,54.61,-1.11,-150.61,-6224.79
BNF,Briton Ferry,51.64,-3.82,-3573.67,-169.33
BRX,Brixton,51.46,-0.11,1112.19,186.40
BGE,Broad Green,53.41,-2.89,-2402.79,-3772.22
BDB,Broadbottom,53.44,-2.02,-1293.71,-3843.15
BSR,Broadstairs,51.36,1.43,3069.64,395.49
BCU,Brockenhurst,50.82,-1.57,-733.48,1503.59
BHS,Brockholes,53.60,-1.77,-982.31,-4161.35
BCY,Brockley,51.46,-0.04,1208.76,183.45
BOM,Bromborough,53.32,-2.99,-2522.08,-3600.39
BMR,Bromborough Rake,53.33,-2.99,-2524.22,-3616.84
BMC,Bromley Cross,53.61,-2.41,-1790.85,-4195.17
BMN,Bromley North,51.41,0.02,1278.49,297.13
BMS,Bromley South,51.40,0.02,1279.80,315.49
BMV,Bromsgrove,52.32,-2.05,-1334.00,-1564.63
BSY,Brondesbury,51.55,-0.20,999.75,18.65
BSP,Brondesbury Park,51.54,-0.21,990.37,29.41
BPK,Brookmans Park,51.72,-0.20,997.90,-338.79
BKO,Brookwood,51.30,-0.64,452.56,511.47
BME,Broome,52.42,-2.89,-2392.36,-1768.54
BMF,Broomfleet,53.74,-0.67,405.00,-4452.68
BRA,Brora,58.01,-3.85,-3615.43,-13158.48
BUH,Brough,53.73,-0.58,523.77,-4426.39
BYF,Broughty Ferry,56.47,-2.87,-2377.10,-10008.94
BXB,Broxbourne,51.75,-0.01,1242.58,-391.46
BCV,Bruce Grove,51.59,-0.07,1168.27,-77.81
BDA,Brundall,52.62,1.44,3076.85,-2169.98
BGA,Brundall Gardens,52.62,1.42,3051.00,-2176.68
BSU,Brunstane,55.94,-3.10,-2665.23,-8939.98
BRW,Brunswick,53.38,-2.98,-2506.74,-3723.31
BRU,Bruton,51.11,-2.45,-1838.25,902.93
BYN,Bryn,53.50,-2.65,-2092.58,-3962.26
BUC,Buckenham,52.60,1.47,3116.13,-2125.06
BCK,Buckley,53.16,-3.06,-2608.27,-3276.84
BUK,Bucknell,52.36,-2.95,-2472.43,-1635.65
BGL,Bugle,50.40,-4.79,-4803.68,2352.99
BHR,Builth Road,52.17,-3.43,-3077.61,-1252.13
BLW,Bulwell,53.00,-1.20,-256.29,-2944.05
BUE,Bures,51.97,0.77,2229.15,-848.02
BUG,Burgess Hill,50.95,-0.13,1095.00,1224.89
BUY,Burley Park,53.81,-1.58,-739.01,-4599.43
BUW,Burley-in-Wharfedale,53.91,-1.75,-961.10,-4795.47
BNA,Burnage,53.42,-2.22,-1544.91,-3804.29
BUD,Burneside,54.36,-2.77,-2241.86,-5706.06
BNM,Burnham,51.52,-0.65,439.12,63.74
BUU,Burnham-on-Crouch,51.63,0.81,2286.12,-160.71
BUB,Burnley Barracks,53.79,-2.26,-1599.13,-4556.79
BNC,Burnley Central,53.79,-2.24,-1582.64,-4561.43
BYM,Burnley Manchester Road,53.78,-2.25,-1587.56,-4544.01
BUI,Burnside,55.82,-4.20,-4060.21,-8684.41
BTS,Burntisland,56.06,-3.23,-2832.45,-9173.40
BCB,Burscough Bridge,53.61,-2.84,-2337.38,-4177.75
BCJ,Burscough Junction,53.60,-2.84,-2335.29,-4163.12
BUO,Bursledon,50.88,-1.31,-394.21,1365.95
BUJ,Burton Joyce,52.98,-1.04,-59.61,-2912.21
BUT,Burton-on-Trent,52.81,-1.64,-820.64,-2549.01
BSE,Bury St Edmunds,52.25,0.71,2158.71,-1424.20
BUS,Busby,55.78,-4.26,-4133.83,-8609.55
BHK,Bush Hill Park,51.64,-0.07,1169.05,-176.74
BSH,Bushey,51.65,-0.39,769.27,-185.34
BUL,Butlers Lane,52.59,-1.84,-1067.96,-2114.31
BXD,Buxted,50.99,0.13,1422.83,1150.73
BUX,Buxton,53.26,-1.91,-1162.63,-3475.89
BFN,Byfleet & New Haw,51.35,-0.48,647.78,417.66
BYE,Bynea,51.67,-4.10,-3927.31,-238.89
CAD,Cadoxton,51.41,-3.25,-2852.32,290.36
CGW,Caergwrle,53.11,-3.03,-2579.17,-3164.44
CPH,Caerphilly,51.57,-3.22,-2813.86,-34.20
CWS,Caersws,52.52,-3.43,-3084.52,-1958.75
CDT,Caldicot,51.58,-2.76,-2234.74,-61.12
CIR,Caledonian Rd & Barnsbury,51.54,-0.12,1110.90,23.29
CSK,Calstock,50.50,-4.21,-4066.19,2154.07
CDU,Cam & Dursley,51.72,-2.36,-1726.97,-331.77
CAM,Camberley,51.34,-0.74,314.80,444.84
CBN,Camborne,50.21,-5.30,-5443.15,2739.14
CBG,Cambridge,52.19,0.14,1430.55,-1303.57
CBH,Cambridge Heath,51.53,-0.06,1184.16,46.47
CBL,Cambuslang,55.82,-4.17,-4021.03,-8689.56
CMD,Camden Road,51.54,-0.14,1079.82,26.16
CMO,Camelon,56.01,-3.82,-3571.55,-9069.51
CNL,Canley,52.40,-1.55,-700.64,-1720.61
CAO,Cannock,52.69,-2.02,-1300.83,-2305.21
CNN,Canonbury,51.55,-0.09,1140.35,13.06
CBE,Canterbury East,51.27,1.08,2617.38,571.55
CBW,Canterbury West,51.28,1.08,2616.54,551.17
CNY,Cantley,52.58,1.51,3170.63,-2086.37
CPU,Capenhurst,53.26,-2.94,-2464.54,-3474.76
CBB,Carbis Bay,50.20,-5.46,-5653.81,2766.18
CDD,Cardenden,56.14,-3.26,-2868.42,-9344.91
CDB,Cardiff Bay,51.47,-3.17,-2748.01,178.64
CDF,Cardiff Central,51.48,-3.18,-2764.30,160.47
CDQ,Cardiff Queen Street,51.48,-3.17,-2752.79,148.38
CDO,Cardonald,55.85,-4.34,-4233.10,-8756.70
CDR,Cardross,55.96,-4.65,-4628.16,-8976.38
CRF,Carfin,55.81,-3.96,-3746.91,-8664.56
CAK,Cark,54.18,-2.97,-2503.16,-5343.92
CAR,Carlisle,54.89,-2.93,-2453.82,-6796.82
CTO,Carlton,52.96,-1.08,-108.35,-2873.27
CLU,Carluke,55.73,-3.85,-3611.16,-8509.56
CMN,Carmarthen,51.85,-4.31,-4189.21,-608.34
CML,Carmyle,55.83,-4.16,-4002.27,-8719.57
CNF,Carnforth,54.13,-2.77,-2248.20,-5246.37
CAN,Carnoustie,56.50,-2.71,-2166.45,-10077.00
CAY,Carntyne,55.86,-4.18,-4028.17,-8761.76
CPK,Carpenders Park,51.63,-0.39,768.49,-149.89
CAG,Carrbridge,57.28,-3.83,-3584.71,-11664.18
CSH,Carshalton,51.37,-0.17,1046.18,379.65
CSB,Carshalton Beeches,51.36,-0.17,1041.85,402.15
CRS,Carstairs,55.69,-3.67,-3382.94,-8427.61
CDY,Cartsdyke,55.94,-4.73,-4727.47,-8939.36
CBP,Castle Bar Park,51.52,-0.33,837.46,64.81
CLC,Castle Cary,51.10,-2.52,-1934.01,927.02
CFD,Castleford,53.72,-1.35,-456.65,-4419.97
CAS,Castleton,53.59,-2.18,-1498.23,-4150.54
CSM,Castleton Moor,54.47,-0.95,59.36,-5934.22
CAT,Caterham,51.28,-0.08,1157.56,555.52
CTF,Catford,51.44,-0.03,1223.31,224.89
CFB,Catford Bridge,51.44,-0.02,1225.15,224.21
CYS,Cathays,51.49,-3.18,-2763.52,134.24
CCT,Cathcart,55.82,-4.26,-4131.73,-8685.61
CTL,Cattal,54.00,-1.32,-412.54,-4977.02
CAU,Causeland,50.41,-4.47,-4392.20,2341.30
CYB,Cefn-y-Bedd,53.10,-3.03,-2576.81,-3145.97
CTH,Chadwell Heath,51.57,0.13,1419.70,-27.02
CFH,Chafford Hundred,51.49,0.29,1619.86,140.87
CFO,Chalfont & Latimer,51.67,-0.56,547.70,-230.90
CHW,Chalkwell,51.54,0.67,2104.71,32.73
CFR,Chandlers Ford,50.98,-1.38,-494.27,1165.02
CEF,Chapel-en-le-Frith,53.31,-1.92,-1170.09,-3580.83
CPN,Chapelton,51.02,-4.02,-3833.05,1098.14
CLN,Chapeltown,53.46,-1.47,-597.81,-3886.67
CWC,Chappel & Wakes Colne,51.93,0.76,2215.89,-756.19
CHG,Charing,51.21,0.79,2256.14,706.37
CHC,Charing Cross (Glasgow),55.86,-4.27,-4143.47,-8781.38
CBY,Charlbury,51.87,-1.49,-627.44,-647.21
CTN,Charlton,51.49,0.03,1295.77,138.38
CRT,Chartham,51.26,1.02,2544.13,606.19
CSR,Chassen Road,53.45,-2.37,-1738.53,-3853.71
CTE,Chatelherault,55.77,-4.00,-3808.13,-8578.74
CTM,Chatham,51.38,0.52,1915.70,355.35
CHT,Chathill,55.54,-1.71,-901.48,-8113.21
CHU,Cheadle Hulme,53.38,-2.19,-1510.97,-3710.61
CHE,Cheam,51.36,-0.21,985.73,406.09
CED,Cheddington,51.86,-0.66,419.17,-617.65
CEL,Chelford,53.27,-2.28,-1626.44,-3496.51
CHM,Chelmsford,51.74,0.47,1849.20,-370.00
CLD,Chelsfield,51.36,0.11,1394.54,404.50
CNM,Cheltenham Spa,51.90,-2.10,-1398.82,-698.08
CPW,Chepstow,51.64,-2.67,-2122.60,-173.98
CYT,Cherry Tree,53.73,-2.52,-1928.43,-4437.87
CHY,Chertsey,51.39,-0.51,612.01,341.53
CHN,Cheshunt,51.70,-0.02,1226.30,-301.74
CSN,Chessington North,51.36,-0.30,876.66,388.19
CSS,Chessington South,51.36,-0.31,866.86,403.90
CTR,Chester,53.20,-2.88,-2385.92,-3345.69
CRD,Chester Road,52.54,-1.83,-1060.95,-1998.52
CHD,Chesterfield,53.24,-1.42,-539.43,-3430.04
CLS,Chester-le-Street,54.85,-1.58,-739.14,-6723.37
CSW,Chestfield & Swalecliffe,51.36,1.07,2606.92,396.21
CNO,Chetnole,50.87,-2.57,-1998.82,1402.41
CCH,Chichester,50.83,-0.78,267.90,1472.59
CIL,Chilham,51.24,0.98,2490.83,631.97
CHL,Chilworth,51.22,-0.52,592.85,691.88
CHI,Chingford,51.63,0.01,1269.12,-159.55
CLY,Chinley,53.34,-1.94,-1202.50,-3638.00
CPM,Chippenham,51.46,-2.12,-1418.77,188.06
CHP,Chipstead,51.31,-0.17,1042.31,500.14
CRK,Chirk,52.93,-3.07,-2620.56,-2808.32
CIT,Chislehurst,51.41,0.06,1329.22,304.05
CHK,Chiswick,51.48,-0.27,917.86,150.05
CHO,Cholsey,51.57,-1.16,-207.96,-31.41
CRL,Chorley,53.65,-2.63,-2065.51,-4274.20
CLW,Chorleywood,51.65,-0.52,601.08,-202.66
CHR,Christchurch,50.74,-1.78,-1000.34,1663.79
CHH,Christs Hospital,51.05,-0.36,796.81,1027.12
CTW,Church & Oswaldtwistle,53.75,-2.39,-1767.21,-4473.47
CHF,Church Fenton,53.83,-1.23,-295.76,-4628.29
CTT,Church Stretton,52.54,-2.80,-2289.27,-2002.15
CIM,Cilmeri,52.15,-3.46,-3114.93,-1213.84
CTK,City Thameslink,51.51,-0.10,1125.58,83.22
CLT,Clacton on Sea,51.79,1.15,2716.19,-487.43
CLA,Clandon,51.26,-0.50,620.75,592.47
CLP,Clapham High Street,51.47,-0.13,1088.99,181.95
CLJ,Clapham Junction,51.46,-0.17,1041.28,184.59
CPY,Clapham (North Yorkshire),54.11,-2.41,-1791.15,-5196.88
CPT,Clapton,51.56,-0.06,1184.48,-13.99
CLR,Clarbeston Road,51.85,-4.88,-4919.69,-604.91
CKS,Clarkston,55.79,-4.28,-4150.83,-8627.91
CLV,Claverdon,52.28,-1.70,-889.07,-1471.72
CLG,Claygate,51.36,-0.35,816.17,394.40
CLE,Cleethorpes,53.56,-0.03,1219.64,-4089.55
CEA,Cleland,55.80,-3.91,-3688.72,-8659.08
CLI,Clifton,53.52,-2.31,-1670.12,-4008.68
CFN,Clifton Down,51.46,-2.61,-2046.50,183.87
CLH,Clitheroe,53.87,-2.39,-1771.54,-4724.34
CLK,Clock House,51.41,-0.04,1205.18,297.88
CUW,Clunderwen,51.84,-4.73,-4727.84,-582.24
CYK,Clydebank,55.90,-4.40,-4313.45,-8854.75
CBC,Coatbridge Central,55.86,-4.03,-3843.21,-8778.31
CBS,Coatbridge Sunnyside,55.87,-4.03,-3838.00,-8785.95
COA,Coatdyke,55.86,-4.00,-3808.52,-8780.71
CSD,Cobham & Stoke d'Abernon,51.32,-0.39,764.19,482.25
CSL,Codsall,52.63,-2.20,-1528.00,-2185.25
CGN,Cogan,51.45,-3.19,-2776.68,221.66
COL,Colchester,51.90,0.89,2386.56,-704.63
CET,Colchester Town,51.89,0.90,2400.07,-675.93
CEH,Coleshill Parkway,52.52,-1.71,-903.76,-1959.57
CLM,Collingham,53.14,-0.75,307.57,-3238.25
CLL,Collington,50.84,0.46,1835.67,1457.84
CNE,Colne,53.85,-2.18,-1501.95,-4686.37
CWL,Colwall,52.08,-2.36,-1724.27,-1069.87
CWB,Colwyn Bay,53.30,-3.73,-3454.98,-3548.49
CME,Combe,51.83,-1.39,-505.02,-565.52
COM,Commondale,54.48,-0.97,23.52,-5963.84
CNG,Congleton,53.16,-2.19,-1516.38,-3266.29
CNS,Conisbrough,53.49,-1.23,-304.48,-3941.63
CON,Connel Ferry,56.45,-5.39,-5554.39,-9978.75
CEY,Cononley,53.92,-2.01,-1287.03,-4813.56
CNP,Conway Park,53.39,-3.02,-2566.21,-3746.13
CNW,Conwy,53.28,-3.83,-3587.92,-3515.37
COB,Cooden Beach,50.83,0.43,1796.46,1469.89
COO,Cookham,51.56,-0.72,343.37,-5.45
CBR,Cooksbridge,50.90,-0.01,1244.95,1326.48
COE,Coombe Junction Halt,50.45,-4.48,-4411.74,2260.23
COP,Copplestone,50.81,-3.75,-3488.08,1508.41
CRB,Corbridge,54.97,-2.02,-1296.29,-6950.97
COR,Corby,0.00,0.00,1256.59,105042.88
CKH,Corkerhill,55.84,-4.33,-4225.01,-8726.00
CKL,Corkickle,54.54,-3.58,-3273.79,-6085.80
CPA,Corpach,56.84,-5.12,-5221.17,-10774.34
CRR,Corrour,56.76,-4.69,-4675.63,-10606.03
COY,Coryton,51.52,-3.23,-2830.36,70.12
CSY,Coseley,52.55,-2.09,-1381.31,-2017.75
COS,Cosford,52.64,-2.31,-1660.07,-2221.25
CSA,Cosham,50.84,-1.07,-93.55,1452.13
CGM,Cottingham,53.78,-0.41,742.58,-4537.27
COT,Cottingley,53.77,-1.59,-751.39,-4509.09
CDS,Coulsdon South,51.32,-0.14,1082.20,486.86
COV,Coventry,52.40,-1.51,-657.49,-1723.81
CWN,Cowden,51.16,0.11,1395.76,813.28
COW,Cowdenbeath,56.11,-3.34,-2971.55,-9285.49
CRA,Cradley Heath,52.47,-2.09,-1387.27,-1864.06
CGD,Craigendoran,55.99,-4.71,-4701.73,-9046.48
CRM,Cramlington,55.09,-1.60,-765.17,-7198.46
CRV,Craven Arms,52.44,-2.84,-2331.45,-1807.72
CRW,Crawley,51.11,-0.19,1020.50,901.75
CRY,Crayford,51.45,0.18,1482.73,216.90
CDI,Crediton,50.78,-3.65,-3355.64,1571.64
CES,Cressing,51.85,0.58,1987.55,-606.29
CSG,Cressington,53.36,-2.91,-2426.24,-3675.61
CWD,Creswell,53.26,-1.22,-281.13,-3482.61
CRE,Crewe,53.09,-2.43,-1820.41,-3127.27
CKN,Crewkerne,50.87,-2.78,-2257.38,1391.10
CWH,Crews Hill,51.68,-0.11,1121.41,-264.27
CNR,Crianlarich,56.39,-4.62,-4584.35,-9852.69
CCC,Criccieth,52.92,-4.24,-4102.64,-2778.42
CRI,Cricklewood,51.56,-0.21,988.18,-8.02
CFF,Croftfoot,55.82,-4.23,-4090.99,-8686.81
CFT,Crofton Park,51.46,-0.04,1210.43,202.92
CMR,Cromer,52.93,1.29,2891.64,-2802.22
CMF,Cromford,53.11,-1.55,-702.17,-3174.76
CKT,Crookston,55.84,-4.37,-4265.04,-8735.57
CRG,Cross Gates,53.80,-1.45,-577.61,-4584.64
CFL,Crossflatts,53.86,-1.84,-1076.65,-4693.77
COI,Crosshill,55.83,-4.26,-4127.01,-8717.41
CKY,Crosskeys,51.62,-3.13,-2697.12,-134.70
CMY,Crossmyloof,55.83,-4.28,-4161.80,-8718.76
CSO,Croston,53.67,-2.78,-2256.45,-4304.80
CRH,Crouch Hill,51.57,-0.12,1108.71,-33.57
COH,Crowborough,51.05,0.19,1494.38,1035.87
CWU,Crowhurst,50.89,0.50,1890.65,1357.41
CWE,Crowle,53.59,-0.82,222.87,-4146.25
CRN,Crowthorne,51.37,-0.82,220.45,383.16
CRO,Croy,55.96,-4.04,-3847.71,-8966.79
CYP,Crystal Palace,51.42,-0.07,1164.76,278.47
CUD,Cuddington,53.24,-2.60,-2030.76,-3433.49
CUF,Cuffley,51.71,-0.11,1117.75,-313.65
CUM,Culham,51.65,-1.24,-307.23,-201.73
CUA,Culrain,57.92,-4.40,-4313.53,-12968.10
CUB,Cumbernauld,55.94,-3.98,-3777.34,-8938.98
CUP,Cupar,56.32,-3.01,-2548.60,-9702.96
CUH,Curriehill,55.90,-3.32,-2940.65,-8854.51
CUX,Cuxton,51.37,0.46,1840.52,368.50
CMH,Cwmbach,51.70,-3.41,-3060.78,-299.80
CWM,Cwmbran,51.66,-3.02,-2558.04,-207.41
CYN,Cynghordy,52.05,-3.75,-3483.82,-1012.07
DDK,Dagenham Dock,51.53,0.15,1440.02,58.05
DSY,Daisy Hill,53.54,-2.52,-1925.24,-4043.79
DAG,Dalgety Bay,56.04,-3.37,-3002.58,-9142.87
DAL,Dalmally,56.40,-4.98,-5046.13,-9874.52
DAK,Dalmarnock,55.84,-4.22,-4077.56,-8735.34
DAM,Dalmeny,55.99,-3.38,-3020.16,-9029.22
DMR,Dalmuir,55.91,-4.43,-4341.85,-8877.66
DLR,Dalreoch,55.95,-4.58,-4533.04,-8949.96
DLY,Dalry,55.71,-4.71,-4701.53,-8458.53
DLS,Dalston,54.85,-2.99,-2523.42,-6706.20
DLK,Dalston Kingsland,51.55,-0.08,1160.77,13.23
DLT,Dalton,54.15,-3.18,-2763.92,-5296.39
DLW,Dalwhinnie,56.94,-4.25,-4113.60,-10962.51
DNY,Danby,54.47,-0.91,104.80,-5932.48
DCT,Danescourt,51.50,-3.23,-2833.38,110.59
DZY,Danzey,52.32,-1.82,-1046.74,-1568.04
DAR,Darlington,54.52,-1.55,-700.33,-6042.54
DAN,Darnall,53.38,-1.41,-527.47,-3721.14
DSM,Darsham,52.27,1.52,3183.34,-1463.39
DFD,Dartford,51.45,0.22,1533.89,218.85
DRT,Darton,53.59,-1.53,-680.50,-4143.45
DWN,Darwen,53.70,-2.46,-1860.84,-4366.89
DAT,Datchet,51.48,-0.58,523.80,146.10
DVN,Davenport,53.39,-2.15,-1465.79,-3740.94
DWL,Dawlish,50.58,-3.46,-3125.17,1984.48
DWW,Dawlish Warren,50.60,-3.44,-3099.08,1947.31
DEA,Deal,51.22,1.40,3025.74,675.92
DEN,Dean,51.04,-1.63,-810.96,1044.33
DNN,Dean Lane,53.50,-2.18,-1503.49,-3971.05
DGT,Deansgate,53.47,-2.25,-1590.35,-3910.60
DGY,Deganwy,53.29,-3.83,-3591.54,-3545.21
DHN,Deighton,53.67,-1.75,-959.42,-4307.42
DLM,Delamere,53.23,-2.67,-2115.82,-3410.78
DBD,Denby Dale,53.57,-1.66,-846.88,-4111.39
DNM,Denham,51.58,-0.50,627.49,-49.00
DGC,Denham Golf Club,51.58,-0.52,601.75,-52.59
DMK,Denmark Hill,51.47,-0.09,1143.58,176.41
DNT,Dent,54.28,-2.36,-1732.67,-5557.55
DTN,Denton,53.46,-2.13,-1437.52,-3875.60
DEP,Deptford,51.48,-0.03,1223.37,154.72
DBY,Derby,52.92,-1.46,-593.77,-2773.84
DBR,Derby Road,52.05,1.18,2752.30,-1010.17
DKR,Derker,53.55,-2.10,-1400.66,-4064.65
DPT,Devonport,50.38,-4.17,-4019.14,2397.30
DEW,Dewsbury,53.69,-1.63,-809.28,-4354.79
DID,Didcot Parkway,51.61,-1.24,-315.30,-114.45
DIG,Digby & Sowton,50.71,-3.47,-3136.85,1713.70
DMH,Dilton Marsh,51.25,-2.21,-1535.15,625.09
DNS,Dinas Powys,51.43,-3.22,-2813.69,250.86
DMG,Dinas Rhondda,51.62,-3.44,-3090.91,-128.46
DGL,Dingle Road,51.44,-3.18,-2765.95,233.77
DIN,Dingwall,57.59,-4.42,-4336.02,-12305.02
DND,Dinsdale,54.51,-1.47,-598.82,-6030.89
DTG,Dinting,53.45,-1.97,-1235.27,-3860.17
DSL,Disley,53.36,-2.04,-1326.54,-3674.46
DIS,Diss,52.37,1.12,2677.75,-1668.49
DOC,Dockyard,50.38,-4.18,-4024.72,2389.04
DOD,Dodworth,53.54,-1.53,-679.59,-4053.36
DOL,Dolau,52.30,-3.26,-2870.94,-1508.92
DLH,Doleham,50.92,0.61,2028.95,1295.93
DLG,Dolgarrog,53.19,-3.82,-3577.94,-3324.34
DWD,Dolwyddelan,53.05,-3.89,-3656.97,-3050.64
DON,Doncaster,53.52,-1.14,-185.47,-4007.18
DCH,Dorchester South,50.71,-2.44,-1825.81,1722.72
DCW,Dorchester West,50.71,-2.44,-1832.52,1719.33
DOR,Dore,53.33,-1.52,-660.00,-3611.84
DKG,Dorking,51.24,-0.32,846.52,639.49
DPD,Dorking Deepdene,51.24,-0.32,846.02,643.82
DKT,Dorking West,51.24,-0.34,826.63,649.07
DMS,Dormans,51.16,0.00,1251.15,812.96
DDG,Dorridge,52.37,-1.75,-960.32,-1665.24
DVH,Dove Holes,53.30,-1.89,-1134.25,-3555.50
DVP,Dover Priory,51.13,1.31,2907.42,874.26
DVC,Dovercourt,51.94,1.28,2876.21,-782.33
DVY,Dovey Junction,52.56,-3.92,-3706.00,-2057.04
DOW,Downham Market,52.60,0.37,1719.08,-2138.03
DRG,Drayton Green,51.52,-0.33,839.69,78.97
DYP,Drayton Park,51.55,-0.11,1122.90,3.45
DRM,Drem,56.01,-2.79,-2266.94,-9067.55
DRF,Driffield,54.00,-0.43,706.86,-4985.27
DRI,Drigg,54.38,-3.44,-3098.31,-5750.19
DTW,Droitwich Spa,52.27,-2.16,-1473.11,-1453.61
DRO,Dronfield,53.30,-1.47,-600.98,-3558.71
DMC,Drumchapel,55.90,-4.36,-4261.16,-8863.15
DFR,Drumfrochar,55.94,-4.77,-4782.07,-8937.40
DRU,Drumgelloch,55.87,-3.95,-3744.16,-8783.75
DMY,Drumry,55.90,-4.39,-4289.74,-8862.70
DFP,Dublin Ferryport,0.00,0.00,1256.59,105042.88
DPS,Dublin Port - Stena,0.00,0.00,1256.59,105042.88
DUD,Duddeston,52.49,-1.87,-1110.16,-1902.18
DDP,Dudley Port,52.52,-2.05,-1335.40,-1976.12
DFI,Duffield,52.99,-1.49,-622.81,-2919.66
DRN,Duirinish,57.32,-5.69,-5942.12,-11745.37
DST,Duke Street,55.86,-4.21,-4071.66,-8768.66
DUL,Dullingham,52.20,0.37,1720.32,-1318.02
DBC,Dumbarton Central,55.95,-4.57,-4519.20,-8948.41
DBE,Dumbarton East,55.94,-4.55,-4503.03,-8939.43
DUM,Dumbreck,55.85,-4.30,-4182.83,-8741.35
DMF,Dumfries,55.07,-3.60,-3301.79,-7167.45
DMP,Dumpton Park,51.35,1.43,3059.85,426.00
DUN,Dunbar,56.00,-2.51,-1922.06,-9053.64
DBL,Dunblane,56.19,-3.97,-3758.58,-9435.84
DCG,Duncraig,57.34,-5.64,-5872.46,-11781.43
DEE,Dundee,56.46,-2.97,-2501.11,-9987.20
DFL,Dunfermline Queen Margaret,56.08,-3.42,-3070.56,-9221.27
DFE,Dunfermline Town,56.07,-3.45,-3109.84,-9196.04
DKD,Dunkeld & Birnam,56.56,-3.58,-3269.03,-10192.10
DNL,Dunlop,55.71,-4.53,-4475.53,-8470.06
DNO,Dunrobin Castle,57.99,-3.95,-3738.30,-13102.78
DOT,Dunston,54.95,-1.64,-818.84,-6917.85
DNG,Dunton Green,51.30,0.17,1472.79,526.28
DHM,Durham,54.78,-1.58,-743.87,-6570.14
DUR,Durrington-on-Sea,50.82,-0.41,736.21,1502.17
DYC,Dyce,57.21,-2.19,-1516.06,-11513.62
DYF,Dyffryn Ardudwy,52.79,-4.10,-3934.59,-2514.44
EAG,Eaglescliffe,54.53,-1.35,-450.05,-6060.85
EAL,Ealing Broadway,51.51,-0.30,874.96,81.38
ERL,Earlestown,53.45,-2.64,-2079.27,-3863.84
EAR,Earley,51.44,-0.92,95.60,231.64
EAD,Earlsfield,51.44,-0.19,1018.26,229.82
ELD,Earlswood (Surrey),51.23,-0.17,1040.55,667.20
EWD,Earlswood (West Midlands),52.37,-1.86,-1097.24,-1654.06
ECR,East Croydon,51.38,-0.09,1139.89,366.30
EDY,East Didsbury,53.41,-2.22,-1553.58,-3778.63
EDW,East Dulwich,51.46,-0.08,1154.50,190.44
EFL,East Farleigh,51.26,0.48,1869.63,610.34
EGF,East Garforth,53.79,-1.37,-476.45,-4558.59
EGR,East Grinstead,51.13,-0.02,1233.96,873.11
EKL,East Kilbride,55.77,-4.18,-4030.16,-8580.34
EML,East Malling,51.29,0.44,1812.15,548.04
EMD,East Midlands Parkway,0.00,0.00,1256.59,105042.88
ETL,East Tilbury,51.48,0.41,1778.83,142.53
EWR,East Worthing,50.82,-0.35,807.76,1493.78
EBN,Eastbourne,50.77,0.28,1612.30,1600.28
EBK,Eastbrook,51.44,-3.21,-2798.24,238.69
EST,Easterhouse,55.86,-4.11,-3937.76,-8771.35
ERA,Eastham Rake,53.31,-2.98,-2513.71,-3571.36
ESL,Eastleigh,50.97,-1.35,-450.88,1193.04
EGN,Eastrington,53.76,-0.79,260.47,-4483.30
EBD,Ebbsfleet International Domestic,0.00,0.00,1256.59,105042.88
EBV,Ebbw Vale Parkway,51.76,-3.20,-2785.55,-412.31
ECC,Eccles,53.49,-2.33,-1695.89,-3933.57
ECS,Eccles Road,52.47,0.97,2483.26,-1866.59
ECL,Eccleston Park,53.43,-2.78,-2259.35,-3822.37
EDL,Edale,53.36,-1.82,-1040.53,-3687.92
EDN,Eden Park,51.39,-0.03,1222.94,334.09
EBR,Edenbridge,51.21,0.06,1333.30,705.70
EBT,Edenbridge Town,51.20,0.07,1341.55,722.72
EDG,Edge Hill,53.40,-2.95,-2469.85,-3764.98
EDP,Edinburgh Park,55.93,-3.31,-2926.63,-8909.50
EDB,Edinburgh Waverley,55.95,-3.19,-2775.57,-8960.11
EDR,Edmonton Green,51.62,-0.06,1179.31,-142.93
EFF,Effingham Junction,51.29,-0.42,725.47,536.46
EGG,Eggesford,50.89,-3.87,-3643.86,1359.12
EGH,Egham,51.43,-0.55,565.42,254.96
EGT,Egton,54.44,-0.76,292.98,-5873.89
EPH,Elephant & Castle,51.49,-0.10,1130.74,123.67
ELG,Elgin,57.64,-3.31,-2931.16,-12404.53
ELP,Ellesmere Port,53.28,-2.90,-2406.54,-3519.62
ELE,Elmers End,51.40,-0.05,1194.08,318.83
ESD,Elmstead Woods,51.42,0.04,1312.59,280.49
ESW,Elmswell,52.24,0.91,2410.76,-1392.16
ELR,Elsecar,53.50,-1.43,-548.67,-3960.68
ESM,Elsenham,51.92,0.23,1545.03,-745.25
ELS,Elstree & Borehamwood,51.65,-0.28,902.73,-199.88
ELW,Eltham,51.46,0.05,1322.78,201.99
ELO,Elton & Orston,52.95,-0.86,174.80,-2846.59
ELY,Ely,52.39,0.27,1594.05,-1704.30
EMP,Emerson Park,51.57,0.22,1535.64,-28.87
EMS,Emsworth,50.85,-0.94,69.30,1433.19
ENC,Enfield Chase,51.65,-0.09,1141.87,-199.62
ENL,Enfield Lock,51.67,-0.03,1220.75,-236.55
ENF,Enfield Town,51.65,-0.08,1158.64,-197.72
ENT,Entwistle,53.66,-2.41,-1797.10,-4281.21
EPS,Epsom,51.33,-0.27,916.66,449.05
EPD,Epsom Downs,51.32,-0.24,954.38,470.86
ERD,Erdington,52.53,-1.84,-1069.56,-1983.89
ERI,Eridge,51.09,0.20,1511.35,949.12
ERH,Erith,51.48,0.17,1477.45,148.95
ESH,Esher,51.38,-0.35,809.73,356.34
EXR,Essex Road,51.54,-0.10,1134.83,28.68
ETC,Etchingham,51.01,0.44,1816.06,1108.89
EBA,Euxton Balshaw Lane,53.67,-2.68,-2126.52,-4309.91
EVE,Evesham,52.10,-1.95,-1206.19,-1107.62
EWE,Ewell East,51.35,-0.24,951.12,426.83
EWW,Ewell West,51.35,-0.26,931.58,417.16
EXC,Exeter Central,50.73,-3.53,-3211.55,1687.58
EXD,Exeter St David's,50.73,-3.54,-3225.10,1682.23
EXT,Exeter St Thomas,50.72,-3.54,-3220.24,1707.89
EXG,Exhibition Centre,55.86,-4.28,-4160.88,-8775.01
EXM,Exmouth,50.62,-3.41,-3062.37,1901.32
EXN,Exton,50.67,-3.44,-3099.21,1806.23
EYN,Eynsford,51.36,0.20,1515.10,391.33
FLS,Failsworth,53.51,-2.16,-1478.73,-3985.03
FRB,Fairbourne,52.70,-4.05,-3864.74,-2325.35
FRF,Fairfield,53.47,-2.14,-1455.68,-3905.24
FRL,Fairlie,55.75,-4.85,-4881.36,-8551.67
FRW,Fairwater,51.49,-3.23,-2833.28,124.04
FCN,Falconwood,51.46,0.08,1355.93,194.87
FKG,Falkirk Grahamston,56.00,-3.79,-3530.37,-9062.43
FKK,Falkirk High,55.99,-3.79,-3539.48,-9040.42
FOC,Falls of Cruachan,56.39,-5.11,-5209.16,-9859.63
FMR,Falmer,50.86,-0.09,1146.07,1411.30
FAL,Falmouth Docks,50.15,-5.06,-5137.87,2860.84
FMT,Falmouth Town,50.15,-5.07,-5149.49,2865.58
FRM,Fareham,50.85,-1.19,-250.99,1429.84
FNB,Farnborough (Main),51.30,-0.76,300.82,526.04
FNN,Farnborough North,51.30,-0.74,316.88,514.96
FNC,Farncombe,51.20,-0.60,492.02,728.68
FNH,Farnham,51.21,-0.79,254.40,698.62
FNR,Farningham Road,51.40,0.24,1554.46,312.53
FNW,Farnworth,53.55,-2.39,-1763.34,-4065.29
ZFD,Farringdon,51.52,-0.11,1123.74,69.80
FLD,Fauldhouse,55.82,-3.72,-3447.25,-8695.40
FAV,Faversham,51.31,0.89,2383.52,495.27
FGT,Faygate,51.10,-0.26,923.94,935.01
FAZ,Fazakerley,53.47,-2.94,-2455.90,-3899.77
FRN,Fearn,57.78,-3.99,-3794.31,-12679.99
FEA,Featherstone,53.68,-1.36,-462.70,-4327.53
FLX,Felixstowe,51.97,1.35,2964.52,-840.06
FEL,Feltham,51.45,-0.41,738.28,217.78
FNT,Feniton,50.79,-3.29,-2898.42,1565.50
FEN,Fenny Stratford,52.00,-0.72,348.94,-906.92
FER,Fernhill,51.69,-3.40,-3038.22,-268.36
FRY,Ferriby,53.72,-0.51,614.34,-4405.86
FYS,Ferryside,51.77,-4.37,-4269.52,-435.18
FFA,Ffairfach,51.87,-3.99,-3793.24,-647.30
FIL,Filey,54.21,-0.29,884.95,-5409.73
FIT,Filton Abbey Wood,51.50,-2.56,-1984.14,101.56
FNY,Finchley Road & Frognal,51.55,-0.18,1024.97,9.20
FPK,Finsbury Park,51.56,-0.11,1122.97,-20.37
FIN,Finstock,51.85,-1.47,-601.70,-607.19
FSB,Fishbourne (Sussex),50.84,-0.82,225.74,1458.33
FSG,Fishersgate,50.83,-0.22,979.10,1468.13
FGH,Fishguard Harbour,52.01,-4.99,-5048.81,-930.67
FSK,Fiskerton,53.06,-0.91,102.95,-3067.48
FZW,Fitzwilliam,53.63,-1.37,-480.61,-4233.37
FWY,Five Ways,52.47,-1.91,-1162.73,-1867.00
FLE,Fleet,51.29,-0.83,205.86,538.21
FLM,Flimby,54.69,-3.52,-3196.50,-6387.36
FLN,Flint,53.25,-3.13,-2705.74,-3453.06
FLT,Flitwick,52.00,-0.50,630.23,-914.57
FLI,Flixton,53.44,-2.38,-1758.31,-3849.22
FLF,Flowery Field,53.46,-2.08,-1375.06,-3885.22
FKC,Folkestone Central,51.08,1.17,2735.65,961.49
FKW,Folkestone West,51.08,1.15,2715.95,958.03
FOD,Ford,50.83,-0.58,524.81,1477.64
FOG,Forest Gate,51.55,0.02,1287.40,10.90
FOH,Forest Hill,51.44,-0.05,1189.17,236.06
FBY,Formby,53.55,-3.07,-2627.22,-4072.37
FOR,Forres,57.61,-3.63,-3329.18,-12337.06
FRS,Forsinard,58.36,-3.90,-3671.83,-13859.27
FTM,Fort Matilda,55.96,-4.80,-4808.00,-8973.63
FTW,Fort William,56.82,-5.11,-5201.17,-10728.74
FOK,Four Oaks,52.58,-1.83,-1055.34,-2088.45
FOX,Foxfield,54.26,-3.22,-2810.79,-5509.36
FXN,Foxton,52.12,0.06,1328.09,-1149.86
FRT,Frant,51.10,0.29,1629.12,918.43
FTN,Fratton,50.80,-1.07,-101.68,1545.36
FRE,Freshfield,53.57,-3.07,-2628.38,-4097.99
FFD,Freshford,51.34,-2.30,-1653.53,433.50
FML,Frimley,51.31,-0.75,311.86,494.96
FRI,Frinton on Sea,51.84,1.24,2828.85,-576.43
FZH,Frizinghall,53.82,-1.77,-980.20,-4614.41
FRD,Frodsham,53.30,-2.72,-2187.35,-3547.48
FRO,Frome,51.23,-2.31,-1664.90,667.33
FLW,Fulwell,51.43,-0.35,814.61,246.23
FNV,Furness Vale,53.35,-1.99,-1258.71,-3655.24
FZP,Furze Platt,51.53,-0.73,335.29,44.35
GNB,Gainsborough Central,53.40,-0.77,283.15,-3758.83
GBL,Gainsborough Lea Road,53.39,-0.77,284.56,-3731.33
GCH,Garelochhead,56.08,-4.83,-4846.51,-9219.82
GRF,Garforth,53.80,-1.38,-491.35,-4566.94
GGV,Gargrave,53.98,-2.11,-1405.82,-4938.16
GAR,Garrowhill,55.86,-4.13,-3965.95,-8762.14
GRS,Garscadden,55.89,-4.37,-4263.85,-8828.28
GSD,Garsdale,54.32,-2.33,-1684.98,-5636.88
GSN,Garston (Hertfordshire),51.69,-0.38,773.89,-268.82
GSW,Garswood,53.49,-2.67,-2122.87,-3940.01
GRH,Gartcosh,55.89,-4.08,-3902.75,-8824.13
GMG,Garth (Bridgend),51.60,-3.64,-3348.80,-84.90
GTH,Garth (Powys),52.13,-3.53,-3207.72,-1178.62
GVE,Garve,57.61,-4.69,-4672.86,-12343.66
GST,Gathurst,53.56,-2.69,-2151.02,-4084.44
GTY,Gatley,53.39,-2.23,-1564.51,-3746.03
GTW,Gatwick Airport,51.16,-0.16,1052.92,811.54
GGJ,Georgemas Junction,58.51,-3.45,-3109.34,-14178.61
GER,Gerrards Cross,51.59,-0.56,554.34,-69.76
GDP,Gidea Park,51.58,0.21,1517.09,-55.27
GFN,Giffnock,55.80,-4.29,-4173.51,-8657.81
GIG,Giggleswick,54.06,-2.30,-1657.28,-5107.78
GBD,Gilberdyke,53.75,-0.73,330.52,-4468.63
GFF,Gilfach Fargoed,51.68,-3.23,-2824.08,-263.78
GIL,Gillingham (Dorset),51.03,-2.27,-1617.63,1061.06
GLM,Gillingham (Kent),51.39,0.55,1952.83,342.43
GSC,Gilshochill,55.90,-4.28,-4158.88,-8847.84
GIP,Gipsy Hill,51.42,-0.08,1150.57,265.55
GIR,Girvan,55.25,-4.85,-4875.18,-7521.48
GLS,Glaisdale,54.44,-0.79,252.49,-5877.48
GCW,Glan Conwy,53.27,-3.80,-3546.44,-3489.53
GLC,Glasgow Central,55.86,-4.26,-4128.07,-8771.35
GLQ,Glasgow Queen Street,55.86,-4.25,-4119.24,-8776.61
GLH,Glasshoughton,53.71,-1.34,-440.46,-4389.61
GLZ,Glazebrook,53.43,-2.46,-1855.21,-3817.53
GLE,Gleneagles,56.27,-3.73,-3462.23,-9617.10
GLF,Glenfinnan,56.87,-5.45,-5635.57,-10834.61
GLG,Glengarnock,55.74,-4.67,-4655.26,-8525.09
GLT,Glenrothes with Thornton,56.16,-3.14,-2718.39,-9387.91
GLO,Glossop,53.44,-1.95,-1208.42,-3850.27
GCR,Gloucester,51.87,-2.24,-1574.65,-632.91
GLY,Glynde,50.86,0.07,1345.22,1417.32
GOB,Gobowen,52.89,-3.04,-2583.05,-2727.71
GOD,Godalming,51.19,-0.62,473.91,750.21
GDL,Godley,53.45,-2.05,-1342.09,-3865.01
GDN,Godstone,51.22,-0.05,1193.25,685.89
GOE,Goldthorpe,53.53,-1.31,-404.61,-4031.44
GOF,Golf Street,56.50,-2.72,-2182.82,-10071.36
GOL,Golspie,57.97,-3.99,-3785.63,-13073.96
GOM,Gomshall,51.22,-0.44,697.52,683.20
GMY,Goodmayes,51.57,0.11,1397.87,-23.25
GOO,Goole,53.70,-0.87,150.96,-4380.92
GTR,Goostrey,53.22,-2.33,-1685.72,-3398.12
GDH,Gordon Hill,51.66,-0.09,1137.32,-221.54
GOR,Goring & Streatley,51.52,-1.13,-176.38,67.84
GBS,Goring-by-Sea,50.82,-0.43,708.87,1501.78
GTO,Gorton,53.47,-2.17,-1484.24,-3899.69
GPO,Gospel Oak,51.56,-0.15,1065.91,-1.13
GRK,Gourock,55.96,-4.82,-4835.05,-8980.31
GWN,Gowerton,51.65,-4.04,-3847.72,-191.40
GOX,Goxhill,53.68,-0.34,830.22,-4323.43
GPK,Grange Park,51.64,-0.10,1133.47,-178.95
GOS,Grange-Over-Sands,54.20,-2.90,-2414.52,-5380.01
GTN,Grangetown,51.47,-3.19,-2776.65,178.79
GRA,Grantham,52.91,-0.64,444.07,-2754.10
GRT,Grateley,51.17,-1.62,-793.23,783.88
GVH,Gravelly Hill,52.52,-1.85,-1086.40,-1956.45
GRV,Gravesend,51.44,0.37,1720.29,231.12
GRY,Grays,51.48,0.32,1663.61,160.01
GTA,Great Ayton,54.49,-1.12,-155.28,-5979.11
GRB,Great Bentley,51.85,1.07,2603.71,-605.11
GRC,Great Chesterford,52.06,0.19,1501.34,-1029.01
GCT,Great Coates,53.58,-0.13,1091.89,-4117.76
GMV,Great Malvern,52.11,-2.32,-1675.35,-1129.63
GMN,Great Missenden,51.70,-0.71,359.74,-303.05
GYM,Great Yarmouth,52.61,1.72,3433.03,-2154.45
GNL,Green Lane,53.38,-3.02,-2558.30,-3725.54
GNR,Green Road,54.24,-3.25,-2848.11,-5480.36
GBK,Greenbank,53.25,-2.53,-1947.00,-3457.21
GRL,Greenfaulds,55.94,-3.99,-3793.49,-8925.14
GNF,Greenfield,53.54,-2.01,-1291.09,-4043.12
GFD,Greenford,51.54,-0.34,820.84,25.40
GNH,Greenhithe for Bluewater,51.45,0.28,1609.26,211.95
GKC,Greenock Central,55.95,-4.75,-4754.08,-8945.73
GKW,Greenock West,55.95,-4.77,-4773.30,-8949.80
GNW,Greenwich,51.48,-0.01,1238.62,156.78
GEA,Gretna Green,55.00,-3.06,-2619.22,-7023.51
GMD,Grimsby Docks,53.57,-0.08,1160.96,-4114.84
GMB,Grimsby Town,53.56,-0.09,1146.62,-4094.02
GRN,Grindleford,53.31,-1.63,-800.20,-3567.25
GMT,Grosmont,54.44,-0.72,339.72,-5870.72
GRP,Grove Park,51.43,0.02,1285.14,253.34
GUI,Guide Bridge,53.47,-2.11,-1416.63,-3911.72
GLD,Guildford,51.24,-0.58,522.53,647.55
GSY,Guiseley,53.88,-1.72,-912.48,-4729.37
GUN,Gunnersbury,51.49,-0.28,907.80,128.19
GSL,Gunnislake,50.52,-4.22,-4079.77,2116.39
GNT,Gunton,52.87,1.35,2962.38,-2671.88
GWE,Gwersyllt,53.07,-3.02,-2560.16,-3092.53
GYP,Gypsy Lane,54.53,-1.18,-234.99,-6067.90
HAB,Habrough,53.61,-0.27,917.68,-4178.40
HCB,Hackbridge,51.38,-0.15,1061.94,360.46
HKC,Hackney Central,51.55,-0.06,1185.87,16.10
HAC,Hackney Downs,51.55,-0.06,1180.50,12.29
HKW,Hackney Wick,51.54,-0.03,1224.00,22.62
HDM,Haddenham & Thame Parkway,51.77,-0.94,65.06,-440.25
HAD,Haddiscoe,52.53,1.62,3308.46,-1984.74
HDF,Hadfield,53.46,-1.97,-1228.97,-3883.43
HDW,Hadley Wood,51.67,-0.18,1033.32,-231.52
HGF,Hag Fold,53.53,-2.49,-1898.63,-4032.38
HAG,Hagley,52.42,-2.15,-1458.75,-1767.78
HMY,Hairmyres,55.76,-4.22,-4080.47,-8572.11
HAL,Hale,53.38,-2.35,-1712.13,-3716.30
HAS,Halesworth,52.35,1.51,3160.85,-1613.52
HED,Halewood,53.37,-2.82,-2316.18,-3688.99
HFX,Halifax,53.72,-1.85,-1088.79,-4412.52
HLG,Hall Green,52.44,-1.85,-1077.42,-1797.07
HID,Hall I Th Wood,53.60,-2.41,-1796.38,-4162.17
HLR,Hall Road,53.50,-3.05,-2601.63,-3960.09
HAI,Halling,51.35,0.44,1819.30,412.20
HWH,Haltwhistle,54.97,-2.46,-1859.09,-6954.12
HMT,Ham Street,51.07,0.85,2337.31,991.06
HME,Hamble,50.87,-1.33,-424.42,1392.47
HNC,Hamilton Central,55.77,-4.04,-3851.39,-8594.99
BKQ,Hamilton Square,53.39,-3.01,-2554.84,-3748.85
HNW,Hamilton West,55.78,-4.05,-3870.73,-8606.74
HMM,Hammerton,54.00,-1.28,-366.07,-4974.21
HMD,Hampden Park,50.80,0.28,1609.91,1545.21
HDH,Hampstead Heath,51.56,-0.17,1047.69,-2.14
HMP,Hampton,51.42,-0.37,785.98,282.96
HMC,Hampton Court,51.40,-0.34,823.11,310.16
HMW,Hampton Wick,51.41,-0.31,861.38,285.78
HIA,Hampton-in-Arden,52.43,-1.70,-893.33,-1781.31
HSD,Hamstead,52.53,-1.93,-1182.90,-1989.20
HAM,Hamworthy,50.73,-2.02,-1297.32,1690.32
HND,Hanborough,51.83,-1.37,-480.52,-550.90
HTH,Handforth,53.35,-2.21,-1542.53,-3650.46
HAN,Hanwell,51.51,-0.34,828.20,87.31
HPN,Hapton,53.78,-2.32,-1673.34,-4537.46
HRL,Harlech,52.86,-4.11,-3940.34,-2662.11
HDN,Harlesden,51.54,-0.26,930.00,37.11
HRD,Harling Road,52.45,0.91,2406.40,-1831.56
HLN,Harlington,51.96,-0.50,629.70,-829.84
HWM,Harlow Mill,51.79,0.13,1423.93,-480.00
HWN,Harlow Town,51.78,0.10,1376.92,-461.06
HRO,Harold Wood,51.59,0.23,1552.84,-78.36
HPD,Harpenden,51.81,-0.35,811.44,-529.95
HRM,Harrietsham,51.24,0.67,2106.99,631.54
HGY,Harringay,51.58,-0.11,1123.63,-46.01
HRY,Harringay Green Lanes,51.58,-0.10,1132.75,-45.77
HRR,Harrington,54.61,-3.57,-3253.02,-6231.82
HGT,Harrogate,53.99,-1.54,-688.04,-4968.25
HRW,Harrow & Wealdstone,51.59,-0.33,834.08,-75.05
HOH,Harrow-on-the-Hill,51.58,-0.34,831.66,-49.47
HTF,Hartford,53.24,-2.55,-1972.99,-3437.24
HBY,Hartlebury,52.33,-2.22,-1551.92,-1588.58
HPL,Hartlepool,54.69,-1.21,-270.30,-6381.40
HTW,Hartwood,55.81,-3.84,-3599.02,-8673.00
HPQ,Harwich International,51.95,1.26,2843.97,-799.76
HWC,Harwich Town,51.94,1.29,2883.88,-793.35
HSL,Haslemere,51.09,-0.72,346.79,949.36
HSK,Hassocks,50.92,-0.15,1072.00,1283.98
HGS,Hastings,50.86,0.58,1985.64,1420.54
HTE,Hatch End,51.61,-0.37,789.26,-112.71
HAT,Hatfield,51.76,-0.22,983.94,-426.04
HFS,Hatfield & Stainforth,53.59,-1.02,-38.53,-4144.55
HAP,Hatfield Peverel,51.78,0.59,2005.47,-458.62
HSG,Hathersage,53.33,-1.65,-831.68,-3608.41
HTY,Hattersley,53.45,-2.04,-1323.80,-3851.93
HTN,Hatton,52.30,-1.67,-859.24,-1508.78
HAV,Havant,50.85,-0.98,15.15,1427.00
HVN,Havenhouse,53.11,0.27,1602.08,-3177.90
HVF,Haverfordwest,51.80,-4.96,-5016.64,-505.00
HWD,Hawarden,53.19,-3.03,-2578.11,-3322.32
HWB,Hawarden Bridge,53.22,-3.03,-2578.92,-3388.98
HKH,Hawkhead,55.84,-4.40,-4306.66,-8735.56
HDB,Haydon Bridge,54.97,-2.25,-1586.35,-6968.40
HYR,Haydons Road,51.43,-0.19,1017.80,263.52
HAY,Hayes & Harlington,51.50,-0.42,724.56,105.31
HYS,Hayes (Kent),51.38,0.01,1269.37,364.68
HYL,Hayle,50.19,-5.42,-5597.52,2788.42
HYM,Haymarket,55.95,-3.22,-2813.79,-8946.70
HHE,Haywards Heath,51.01,-0.11,1123.41,1119.67
HAZ,Hazel Grove,53.38,-2.12,-1427.14,-3713.90
HCN,Headcorn,51.17,0.63,2050.18,792.73
HDY,Headingley,53.82,-1.59,-758.91,-4611.63
HDL,Headstone Lane,51.60,-0.36,805.36,-97.69
HDG,Heald Green,53.37,-2.24,-1573.09,-3697.98
HLI,Healing,53.58,-0.16,1053.44,-4130.08
HHL,Heath High Level,51.52,-3.18,-2767.34,77.87
HLL,Heath Low Level,51.52,-3.18,-2767.68,79.71
HXX,Heathrow Airport T123,51.47,-0.45,686.56,167.19
HAF,Heathrow Airport T4,51.46,-0.45,693.22,196.65
HWV,Heathrow Airport T5,51.47,-0.49,636.15,172.63
HTC,Heaton Chapel,53.43,-2.18,-1499.26,-3811.74
HBD,Hebden Bridge,53.74,-2.01,-1284.29,-4447.48
HEC,Heckington,52.98,-0.29,884.84,-2898.45
HDE,Hedge End,50.93,-1.29,-380.58,1268.29
HNF,Hednesford,52.71,-2.00,-1275.76,-2353.20
HEI,Heighington,54.60,-1.58,-744.28,-6198.45
HLC,Helensburgh Central,56.00,-4.73,-4728.94,-9065.66
HLU,Helensburgh Upper,56.01,-4.73,-4725.20,-9082.28
HLD,Hellifield,54.01,-2.23,-1560.97,-5004.27
HMS,Helmsdale,58.12,-3.66,-3371.03,-13372.01
HSB,Helsby,53.28,-2.77,-2247.60,-3505.29
HML,Hemel Hempstead,51.74,-0.49,635.92,-382.13
HEN,Hendon,51.58,-0.24,954.74,-51.53
HNG,Hengoed,51.65,-3.22,-2821.00,-188.71
HNL,Henley-in-Arden,52.29,-1.78,-1000.21,-1500.14
HOT,Henley-on-Thames,51.53,-0.90,118.08,41.99
HEL,Hensall,53.70,-1.11,-152.95,-4367.94
HFD,Hereford,52.06,-2.71,-2168.51,-1031.76
HNB,Herne Bay,51.36,1.12,2670.19,387.52
HNH,Herne Hill,51.45,-0.10,1128.04,206.96
HER,Hersham,51.38,-0.39,763.61,362.27
HFE,Hertford East,51.80,-0.07,1164.35,-497.67
HFN,Hertford North,51.80,-0.09,1140.51,-497.30
HES,Hessle,53.72,-0.44,697.35,-4406.72
HSW,Heswall,53.33,-3.07,-2630.75,-3616.46
HEV,Hever,51.18,0.10,1376.83,760.76
HEW,Heworth,54.95,-1.56,-711.00,-6920.94
HEX,Hexham,54.97,-2.10,-1393.31,-6967.01
HYD,Heyford,51.92,-1.30,-386.60,-742.49
HHB,Heysham Port,54.03,-2.91,-2427.64,-5049.68
HIB,High Brooms,51.15,0.28,1607.35,825.98
HST,High St (Glasgow),55.86,-4.24,-4105.90,-8770.96
ZHS,High Street Kensington Underground,0.00,0.00,1256.59,105042.88
HWY,High Wycombe,51.63,-0.75,313.87,-152.41
HGM,Higham,51.43,0.47,1846.30,261.26
HIP,Highams Park,51.61,0.00,1256.80,-110.24
HIG,Highbridge & Burnham,51.22,-2.97,-2502.33,685.89
HHY,Highbury & Islington,51.55,-0.10,1127.49,16.39
HTO,Hightown,53.53,-3.06,-2609.71,-4014.56
HLB,Hildenborough,51.21,0.23,1544.44,693.37
HLF,Hillfoot,55.92,-4.32,-4207.28,-8894.29
HLE,Hillington East,55.85,-4.35,-4250.85,-8761.10
HLW,Hillington West,55.86,-4.37,-4272.17,-8763.74
HIL,Hillside,53.62,-3.02,-2568.79,-4212.20
HLS,Hilsea,50.83,-1.06,-82.21,1480.57
HYW,Hinchley Wood,51.37,-0.34,825.92,366.31
HNK,Hinckley,52.54,-1.37,-478.49,-1997.22
HIN,Hindley,53.54,-2.58,-2000.65,-4049.46
HNA,Hinton Admiral,50.75,-1.71,-911.28,1634.40
HIT,Hitchin,51.95,-0.26,923.37,-811.96
HGR,Hither Green,51.45,0.00,1255.43,208.54
HOC,Hockley,51.60,0.66,2090.05,-99.38
HBN,Hollingbourne,51.27,0.63,2050.64,590.08
HOD,Hollinwood,53.52,-2.15,-1457.79,-4004.12
HCH,Holmes Chapel,53.20,-2.35,-1716.92,-3349.99
HLM,Holmwood,51.18,-0.32,850.50,761.59
HOL,Holton Heath,50.71,-2.08,-1371.29,1718.41
HHD,Holyhead,53.31,-4.63,-4600.28,-3571.57
HLY,Holytown,55.81,-3.97,-3769.24,-8675.89
HMN,Homerton,51.55,-0.04,1207.74,16.69
HYB,Honeybourne,52.10,-1.83,-1064.12,-1113.79
HON,Honiton,50.80,-3.19,-2773.71,1544.86
HOY,Honley,53.61,-1.78,-995.81,-4183.92
HPA,Honor Oak Park,51.45,-0.05,1198.89,212.51
HOK,Hook,51.28,-0.96,40.39,559.88
HOO,Hooton,53.30,-2.98,-2508.46,-3550.20
HOP,Hope (Derbyshire),53.35,-1.73,-929.50,-3649.48
HPE,Hope (Flintshire),53.12,-3.04,-2584.18,-3183.78
HPT,Hopton Heath,52.39,-2.91,-2426.14,-1704.56
HOR,Horley,51.17,-0.16,1052.90,786.51
HBP,Hornbeam Park,53.98,-1.53,-674.40,-4941.14
HRN,Hornsey,51.59,-0.11,1114.98,-64.55
HRS,Horsforth,53.85,-1.63,-805.65,-4671.58
HRH,Horsham,51.07,-0.32,852.82,995.78
HSY,Horsley,51.28,-0.44,705.94,561.21
HIR,Horton-in-Ribblesdale,54.15,-2.30,-1654.80,-5286.52
HWI,Horwich Parkway,53.58,-2.54,-1955.35,-4122.55
HSC,Hoscar,53.60,-2.80,-2289.40,-4161.79
HGN,Hough Green,53.37,-2.78,-2253.05,-3703.41
HOU,Hounslow,51.46,-0.36,798.98,187.97
HOV,Hove,50.84,-0.17,1040.72,1466.13
HXM,Hoveton & Wroxham,52.72,1.41,3037.30,-2365.16
HWW,How Wood,51.72,-0.34,820.68,-332.03
HOW,Howden,53.76,-0.86,168.06,-4502.40
HOZ,Howwood (Renfrewshire),55.81,-4.56,-4514.32,-8671.12
HYK,Hoylake,53.39,-3.18,-2763.71,-3739.72
HBB,Hubberts Bridge,52.98,-0.11,1117.38,-2895.00
HKN,Hucknall,53.04,-1.20,-255.76,-3022.68
HUD,Huddersfield,53.65,-1.79,-1001.09,-4265.80
HUL,Hull Paragon,53.74,-0.35,819.40,-4460.86
HUP,Humphrey Park,53.45,-2.33,-1687.06,-3866.08
HCT,Huncoat,53.77,-2.35,-1710.28,-4517.89
HGD,Hungerford,51.41,-1.51,-656.02,285.00
HUB,Hunmanby,54.17,-0.31,858.49,-5337.26
HUN,Huntingdon,52.33,-0.19,1013.69,-1576.77
HNT,Huntly,57.44,-2.78,-2254.68,-11999.91
HNX,Hunts Cross,53.36,-2.85,-2354.08,-3679.40
HUR,Hurst Green,51.24,0.00,1261.58,632.35
HUT,Hutton Cranswick,53.96,-0.43,708.56,-4891.82
HUY,Huyton,53.41,-2.84,-2338.96,-3779.38
HYC,Hyde Central,53.45,-2.09,-1381.32,-3865.06
HYT,Hyde North,53.46,-2.09,-1381.35,-3890.70
HKM,Hykeham,53.20,-0.60,500.09,-3342.69
HYN,Hyndland,55.88,-4.31,-4200.19,-8812.10
HYH,Hythe,51.89,0.93,2429.65,-674.14
IBM,IBM,55.93,-4.83,-4848.44,-8913.35
IFI,Ifield,51.12,-0.21,984.96,894.81
IFD,Ilford,51.56,0.07,1343.45,-8.87
ILK,Ilkley,53.92,-1.82,-1047.84,-4829.23
IMW,Imperial Wharf,0.00,0.00,1256.59,105042.88
INC,Ince,53.54,-2.61,-2047.55,-4043.22
INE,Ince & Elton,53.28,-2.82,-2305.11,-3508.52
INT,Ingatestone,51.67,0.38,1742.55,-228.74
INS,Insch,57.34,-2.62,-2053.29,-11782.25
IGD,Invergordon,57.69,-4.18,-4024.24,-12497.42
ING,Invergowrie,56.46,-3.06,-2610.12,-9987.17
INK,Inverkeithing,56.03,-3.40,-3038.59,-9127.76
INP,Inverkip,55.91,-4.87,-4905.79,-8865.79
INV,Inverness,57.48,-4.22,-4084.50,-12072.83
INH,Invershin,57.92,-4.40,-4307.58,-12979.08
INR,Inverurie,57.29,-2.37,-1745.26,-11677.88
IPS,Ipswich,52.05,1.14,2703.97,-1010.24
IRL,Irlam,53.43,-2.43,-1821.03,-3830.56
IRV,Irvine,55.61,-4.68,-4656.08,-8264.26
ISL,Isleworth,51.47,-0.34,830.50,163.04
ISP,Islip,51.83,-1.24,-309.34,-552.11
IVR,Iver,51.51,-0.51,615.74,94.29
IVY,Ivybridge,50.39,-3.90,-3681.40,2365.96
JEQ,Jewellery Quarter,52.49,-1.91,-1163.06,-1904.37
JOH,Johnston,51.76,-5.00,-5062.33,-411.51
JHN,Johnstone,55.83,-4.50,-4439.16,-8720.31
JOR,Jordanhill,55.88,-4.33,-4214.53,-8817.15
KSL,Kearsley,53.54,-2.38,-1748.01,-4054.38
KSN,Kearsney,51.15,1.27,2865.39,826.02
KEI,Keighley,53.87,-1.90,-1147.77,-4712.94
KEH,Keith,57.55,-2.95,-2479.45,-12217.07
KEL,Kelvedon,51.84,0.70,2144.92,-582.58
KVD,Kelvindale,55.89,-4.31,-4194.05,-8840.30
KEM,Kemble,51.68,-2.02,-1302.03,-247.53
KMH,Kempston Hardwick,52.09,-0.50,619.28,-1095.05
KMP,Kempton Park,51.42,-0.41,738.39,272.62
KMS,Kemsing,51.30,0.25,1569.53,524.86
KML,Kemsley,51.36,0.74,2186.62,391.91
KEN,Kendal,54.33,-2.74,-2208.25,-5658.79
KLY,Kenley,51.32,-0.10,1128.58,469.00
KNE,Kennett,52.28,0.49,1876.90,-1472.08
KNS,Kennishead,55.81,-4.33,-4213.34,-8676.20
KNL,Kensal Green,51.53,-0.22,973.48,49.15
KNR,Kensal Rise,51.53,-0.22,977.30,41.92
KPA,Kensington Olympia,51.50,-0.21,991.87,117.40
KTH,Kent House,51.41,-0.05,1198.67,289.46
KTN,Kentish Town,51.55,-0.14,1080.23,9.68
KTW,Kentish Town West,51.55,-0.15,1070.93,16.77
KNT,Kenton,51.58,-0.32,855.50,-54.42
KBK,Kents Bank,54.17,-2.93,-2442.96,-5334.42
KET,Kettering,52.39,-0.73,331.39,-1709.02
KWB,Kew Bridge,51.49,-0.29,891.29,133.30
KWG,Kew Gardens,51.48,-0.28,896.20,157.23
KEY,Keyham,50.39,-4.18,-4028.71,2373.77
KYN,Keynsham,51.42,-2.49,-1898.39,280.39
KDB,Kidbrooke,51.46,0.03,1292.41,187.58
KID,Kidderminster,52.38,-2.24,-1575.65,-1690.54
KDG,Kidsgrove,53.09,-2.24,-1582.45,-3121.04
KWL,Kidwelly,51.73,-4.32,-4203.16,-365.85
KBN,Kilburn High Road,51.54,-0.19,1013.93,35.49
KLD,Kildale,54.48,-1.07,-93.93,-5954.57
KIL,Kildonan,58.17,-3.87,-3637.81,-13481.20
KGT,Kilgetty,51.73,-4.72,-4706.74,-361.30
KMK,Kilmarnock,55.61,-4.50,-4432.90,-8266.79
KLM,Kilmaurs,55.64,-4.53,-4473.13,-8317.91
KPT,Kilpatrick,55.92,-4.45,-4375.64,-8903.68
KWN,Kilwinning,55.66,-4.71,-4700.19,-8356.10
KBC,Kinbrace,58.26,-3.94,-3727.68,-13658.42
KGM,Kingham,51.90,-1.63,-803.36,-707.96
KGH,Kinghorn,56.07,-3.17,-2757.77,-9198.38
KGL,Kings Langley,51.71,-0.44,702.13,-308.83
KLN,King's Lynn,52.75,0.40,1766.93,-2443.01
KNN,Kings Norton,52.41,-1.93,-1189.09,-1749.61
KGN,Kings Nympton,50.94,-3.91,-3682.86,1260.82
KGP,Kings Park,55.82,-4.25,-4114.93,-8690.14
KGS,Kings Sutton,52.02,-1.28,-363.41,-950.64
KGE,Kingsknowe,55.92,-3.27,-2873.46,-8892.63
KNG,Kingston,51.41,-0.30,875.70,289.39
KND,Kingswood,51.29,-0.21,989.16,529.59
KIN,Kingussie,57.08,-4.05,-3868.23,-11253.07
KIT,Kintbury,51.40,-1.45,-572.17,310.25
KBX,Kirby Cross,51.84,1.22,2793.21,-584.00
KKS,Kirk Sandall,53.56,-1.07,-102.86,-4092.63
KIR,Kirkby,53.49,-2.90,-2414.64,-3935.26
KKB,Kirkby in Ashfield,53.10,-1.25,-328.16,-3148.63
KSW,Kirkby Stephen,54.46,-2.37,-1738.99,-5909.45
KBF,Kirkby-in-Furness,54.23,-3.19,-2776.44,-5455.52
KDY,Kirkcaldy,56.11,-3.17,-2748.76,-9285.42
KRK,Kirkconnel,55.39,-4.00,-3800.32,-7810.79
KKD,Kirkdale,53.44,-2.98,-2514.14,-3842.24
KKM,Kirkham & Wesham,53.79,-2.88,-2388.06,-4548.92
KKH,Kirkhill,55.81,-4.17,-4015.59,-8678.36
KKN,Kirknewton,55.89,-3.43,-3084.53,-8830.32
KWD,Kirkwood,55.85,-4.05,-3863.43,-8760.02
KTL,Kirton Lindsey,53.48,-0.59,505.47,-3932.52
KIV,Kiveton Bridge,53.34,-1.27,-346.02,-3639.37
KVP,Kiveton Park,53.34,-1.24,-311.01,-3630.82
KNA,Knaresborough,54.01,-1.47,-603.16,-4999.99
KBW,Knebworth,51.87,-0.19,1019.73,-635.85
KNI,Knighton,52.35,-3.04,-2590.91,-1610.23
KCK,Knockholt,51.35,0.13,1422.08,425.83
KNO,Knottingley,53.71,-1.26,-335.90,-4384.23
KNU,Knucklas,52.36,-3.10,-2660.07,-1640.36
KNF,Knutsford,53.30,-2.37,-1743.42,-3559.92
KYL,Kyle of Lochalsh,57.28,-5.71,-5969.70,-11664.61
LDY,Ladybank,56.27,-3.12,-2692.16,-9614.94
LAD,Ladywell,51.46,-0.02,1232.52,200.77
LAI,Laindon,51.57,0.42,1792.37,-26.45
LRG,Lairg,58.00,-4.40,-4309.36,-13135.37
LKE,Lake,50.65,-1.17,-218.50,1850.70
LAK,Lakenheath,52.45,0.53,1931.80,-1818.93
LAM,Lamphey,51.67,-4.87,-4906.70,-229.04
LNK,Lanark,55.67,-3.77,-3514.97,-8391.01
LAN,Lancaster,54.05,-2.81,-2294.59,-5081.06
LAC,Lancing,50.83,-0.32,847.96,1482.70
LAW,Landywood,52.66,-2.02,-1298.94,-2246.04
LGB,Langbank,55.92,-4.59,-4542.41,-8903.31
LHO,Langho,53.80,-2.45,-1839.29,-4584.77
LNY,Langley,51.51,-0.54,571.44,95.19
LGG,Langley Green,52.49,-2.00,-1279.10,-1913.41
LGM,Langley Mill,53.02,-1.33,-427.03,-2981.47
LGS,Langside,55.82,-4.28,-4152.98,-8692.67
LGW,Langwathby,54.69,-2.66,-2112.19,-6396.88
LAG,Langwith-Whaley Thorns,53.23,-1.21,-273.34,-3418.42
LAP,Lapford,50.86,-3.81,-3563.79,1420.85
LPW,Lapworth,52.34,-1.73,-925.64,-1602.47
LBT,Larbert,56.02,-3.83,-3587.96,-9103.36
LAR,Largs,55.79,-4.87,-4898.97,-8634.81
LRH,Larkhall,55.74,-3.98,-3771.24,-8524.49
LAU,Laurencekirk,0.00,0.00,1256.59,105042.88
LWH,Lawrence Hill,51.46,-2.56,-1986.33,196.75
LAY,Layton,53.84,-3.03,-2575.76,-4647.24
LZB,Lazonby & Kirkoswald,54.75,-2.70,-2160.90,-6510.70
LEG,Lea Green,53.43,-2.72,-2188.26,-3814.85
LEH,Lea Hall,52.48,-1.79,-1002.20,-1886.45
LEA,Leagrave,51.91,-0.46,676.71,-713.90
LHM,Lealholm,54.46,-0.83,212.30,-5920.60
LMS,Leamington Spa,52.28,-1.54,-686.27,-1486.80
LSW,Leasowe,53.41,-3.10,-2663.50,-3776.04
LHD,Leatherhead,51.30,-0.33,835.36,521.67
LED,Ledbury,52.04,-2.42,-1810.30,-998.70
LEE,Lee,51.45,0.01,1273.47,214.54
LDS,Leeds,53.79,-1.55,-700.46,-4564.23
LEI,Leicester,52.63,-1.13,-166.56,-2193.70
LIH,Leigh (Kent),51.19,0.21,1522.82,735.31
LES,Leigh-on-Sea,51.54,0.64,2066.54,27.34
LBZ,Leighton Buzzard,51.92,-0.68,400.38,-736.61
LEL,Lelant,50.18,-5.44,-5619.12,2792.75
LTS,Lelant Saltings,50.18,-5.44,-5625.24,2802.57
LEN,Lenham,51.23,0.71,2151.71,652.62
LNZ,Lenzie,55.92,-4.15,-3996.84,-8896.78
LEO,Leominster,52.23,-2.73,-2196.67,-1365.86
LET,Letchworth Garden City,51.98,-0.23,966.64,-866.32
LEU,Leuchars (for St. Andrews),56.38,-2.89,-2403.10,-9821.37
LVM,Levenshulme,53.44,-2.19,-1516.49,-3850.16
LWS,Lewes,50.87,0.01,1270.92,1393.97
LEW,Lewisham,51.47,-0.01,1238.86,181.52
LEY,Leyland,53.70,-2.69,-2141.85,-4368.56
LEM,Leyton Midland Road,51.57,-0.01,1247.67,-29.69
LER,Leytonstone High Road,51.56,0.01,1267.07,-18.34
LIC,Lichfield City,52.68,-1.83,-1052.04,-2293.41
LTV,Lichfield Trent Valley,52.69,-1.80,-1020.18,-2306.70
LID,Lidlington,52.04,-0.56,549.72,-991.78
LHS,Limehouse,51.51,-0.04,1206.82,85.56
LCN,Lincoln Central,53.23,-0.54,573.75,-3405.31
LFD,Lingfield,51.18,-0.01,1247.53,770.86
LGD,Lingwood,52.62,1.49,3140.83,-2174.93
LIN,Linlithgow,55.98,-3.60,-3291.09,-9009.12
LIP,Liphook,51.07,-0.80,244.53,985.08
LSK,Liskeard,50.45,-4.47,-4393.48,2257.42
LIS,Liss,51.04,-0.89,127.37,1041.61
LVT,Lisvane & Thornhill,51.54,-3.19,-2772.27,20.81
LTK,Little Kimble,51.75,-0.81,234.14,-402.31
LTT,Little Sutton,53.29,-2.94,-2465.82,-3526.39
LTL,Littleborough,53.64,-2.09,-1392.52,-4254.76
LIT,Littlehampton,50.81,-0.55,566.07,1517.29
LVN,Littlehaven,51.08,-0.31,867.10,967.90
LTP,Littleport,52.46,0.32,1656.95,-1849.27
LVC,Liverpool Central,53.40,-2.98,-2511.17,-3769.02
LVJ,Liverpool James Street,53.40,-2.99,-2527.36,-3769.35
LIV,Liverpool Lime Street,53.41,-2.98,-2509.37,-3774.54
LPY,Liverpool South Parkway,53.36,-2.89,-2397.52,-3673.20
LSN,Livingston North,55.90,-3.54,-3225.96,-8856.18
LVG,Livingston South,55.87,-3.50,-3171.85,-8795.68
LLA,Llanaber,52.74,-4.08,-3899.85,-2417.98
LBR,Llanbedr,52.82,-4.11,-3941.62,-2579.64
LLT,Llanbister Road,52.34,-3.21,-2807.45,-1592.61
LNB,Llanbradach,51.60,-3.23,-2832.28,-98.75
LLN,Llandaf,51.51,-3.23,-2827.04,94.25
LDN,Llandanwg,52.84,-4.12,-3958.89,-2610.84
LLC,Llandecwyn,52.92,-4.06,-3874.38,-2783.06
LLL,Llandeilo,51.89,-3.99,-3785.69,-673.53
LLV,Llandovery,52.00,-3.80,-3552.90,-897.59
LLO,Llandrindod,52.24,-3.38,-3017.04,-1400.94
LLD,Llandudno,53.32,-3.83,-3583.46,-3598.53
LLJ,Llandudno Junction,53.28,-3.81,-3560.82,-3523.20
LLI,Llandybie,51.82,-4.00,-3806.88,-542.49
LLE,Llanelli,51.67,-4.16,-4006.26,-242.63
LLF,Llanfairfechan,53.26,-3.98,-3781.00,-3468.88
LPG,Llanfairpwll,53.22,-4.21,-4066.84,-3394.84
LLG,Llangadog,51.94,-3.89,-3667.13,-785.32
LLM,Llangammarch,52.11,-3.55,-3239.23,-1140.03
LLH,Llangennech,51.69,-4.08,-3902.08,-277.82
LGO,Llangynllo,52.35,-3.16,-2741.62,-1619.50
LLR,Llanharan,51.54,-3.44,-3095.00,35.04
LTH,Llanhilleth,51.70,-3.14,-2708.53,-296.48
LLS,Llanishen,51.53,-3.18,-2767.69,44.92
LWR,Llanrwst,53.14,-3.80,-3553.16,-3238.43
LAS,Llansamlet,51.66,-3.88,-3656.43,-217.43
LWM,Llantwit Major,51.41,-3.48,-3146.65,295.51
LNR,Llanwrda,51.96,-3.87,-3639.97,-830.91
LNW,Llanwrtyd,52.10,-3.63,-3337.05,-1120.50
LLW,Llwyngwril,52.67,-4.09,-3913.14,-2265.73
LLY,Llwynypia,51.63,-3.45,-3111.11,-161.40
LHA,Loch Awe,56.40,-5.04,-5120.02,-9876.20
LHE,Loch Eil Outward Bound,56.86,-5.19,-5309.22,-10799.69
LCL,Lochailort,56.88,-5.66,-5905.92,-10852.05
LCS,Locheilside,56.86,-5.29,-5433.74,-10799.98
LCG,Lochgelly,56.14,-3.31,-2933.30,-9332.84
LCC,Lochluichart,57.62,-4.81,-4826.14,-12360.26
LHW,Lochwinnoch,55.79,-4.62,-4581.37,-8623.42
LOC,Lockerbie,55.12,-3.35,-2984.65,-7270.34
LCK,Lockwood,53.63,-1.80,-1020.69,-4237.65
BFR,London Blackfriars,51.51,-0.10,1125.91,87.55
LBG,London Bridge,51.51,-0.09,1149.01,101.24
CST,London Cannon Street,51.51,-0.09,1141.99,90.06
CHX,London Charing Cross,51.51,-0.12,1099.63,95.96
EUS,London Euston,51.53,-0.13,1086.41,53.81
FST,London Fenchurch Street,51.51,-0.08,1157.19,88.04
LOF,London Fields,51.54,-0.06,1183.56,27.77
KGX,London Kings Cross,51.53,-0.12,1101.13,48.69
LST,London Liverpool Street,51.52,-0.08,1152.89,74.90
MYB,London Marylebone,51.52,-0.16,1049.65,65.70
PAD,London Paddington,51.52,-0.18,1032.93,78.11
LRB,London Road (Brighton),50.84,-0.14,1083.95,1463.19
LRD,London Road (Guildford),51.24,-0.57,541.95,640.06
STP,London St Pancras Domestic,51.53,-0.13,1097.83,49.23
SPX,London St Pancras (Intl),51.53,-0.13,1097.20,45.57
VIC,London Victoria,51.50,-0.14,1073.79,121.28
WAT,London Waterloo,51.50,-0.11,1116.02,107.71
WAE,London Waterloo East,51.50,-0.11,1118.87,103.31
LBK,Long Buckby,52.29,-1.09,-117.48,-1507.63
LGE,Long Eaton,52.89,-1.29,-372.48,-2710.61
LPR,Long Preston,54.02,-2.26,-1596.07,-5016.45
LGK,Longbeck,54.59,-1.03,-47.25,-6182.67
LOB,Longbridge,52.40,-1.98,-1249.16,-1714.84
LNG,Longcross,51.39,-0.59,504.64,345.58
LGF,Longfield,51.40,0.30,1636.48,323.21
LND,Longniddry,55.98,-2.89,-2396.32,-9009.20
LPT,Longport,53.04,-2.22,-1546.28,-3029.57
LGN,Longton,52.99,-2.14,-1446.10,-2923.58
LOO,Looe,50.36,-4.46,-4379.19,2435.97
LOT,Lostock,53.57,-2.49,-1897.30,-4112.11
LTG,Lostock Gralam,53.27,-2.47,-1861.18,-3490.02
LOH,Lostock Hall,53.72,-2.69,-2141.79,-4419.47
LOS,Lostwithiel,50.41,-4.67,-4643.85,2337.60
LBO,Loughborough,52.78,-1.20,-255.91,-2494.28
LGJ,Loughborough Junction,51.47,-0.10,1126.93,179.45
LOW,Lowdham,53.01,-1.00,-5.06,-2958.74
LSY,Lower Sydenham,51.42,-0.03,1214.42,264.78
LWT,Lowestoft,52.47,1.75,3469.48,-1873.83
LUD,Ludlow,52.37,-2.72,-2177.42,-1662.81
LUT,Luton,51.88,-0.41,732.95,-667.33
LTN,Luton Airport Parkway,51.87,-0.40,755.51,-648.08
LUX,Luxulyan,50.39,-4.75,-4747.62,2372.65
LYD,Lydney,51.71,-2.53,-1944.59,-325.68
LYE,Lye,52.46,-2.12,-1419.44,-1844.23
LYP,Lymington Pier,50.76,-1.53,-677.72,1622.87
LYT,Lymington Town,50.76,-1.54,-687.48,1617.54
LYC,Lympstone Commando,50.66,-3.44,-3095.09,1818.59
LYM,Lympstone Village,50.65,-3.43,-3083.11,1846.21
LTM,Lytham,53.74,-2.96,-2492.05,-4450.93
MAC,Macclesfield,53.26,-2.12,-1426.33,-3473.06
MCN,Machynlleth,52.60,-3.85,-3618.28,-2119.75
MST,Maesteg,51.61,-3.65,-3365.49,-112.37
MEW,Maesteg (Ewenny Road),51.61,-3.65,-3358.34,-103.00
MAG,Maghull,53.51,-2.93,-2450.08,-3976.59
MDN,Maiden Newton,50.78,-2.57,-1993.00,1578.63
MAI,Maidenhead,51.52,-0.72,342.64,73.59
MDB,Maidstone Barracks,51.28,0.51,1906.60,565.65
MDE,Maidstone East,51.28,0.52,1915.88,564.30
MDW,Maidstone West,51.27,0.52,1908.90,579.31
MAL,Malden Manor,51.38,-0.26,926.33,346.67
MLG,Mallaig,57.01,-5.83,-6116.12,-11106.78
MLT,Malton,54.13,-0.80,248.34,-5251.25
MVL,Malvern Link,52.13,-2.32,-1677.35,-1162.60
MIA,Manchester Airport,53.37,-2.27,-1618.06,-3688.43
MCO,Manchester Oxford Road,53.47,-2.24,-1579.54,-3910.39
MAN,Manchester Piccadilly,53.48,-2.23,-1562.41,-3915.94
MUF,Manchester United FC Halt,53.46,-2.29,-1640.41,-3886.38
MCV,Manchester Victoria,53.49,-2.24,-1579.64,-3937.86
MNE,Manea,52.50,0.18,1481.32,-1921.50
MNG,Manningtree,51.95,1.05,2578.52,-803.35
MNP,Manor Park,51.55,0.05,1313.87,4.95
MNR,Manor Road,53.39,-3.17,-2754.36,-3749.02
MRB,Manorbier,51.66,-4.79,-4803.71,-214.72
MAS,Manors,54.97,-1.60,-772.94,-6964.13
MFT,Mansfield,53.14,-1.20,-257.46,-3235.09
MSW,Mansfield Woodhouse,53.16,-1.20,-260.80,-3273.59
MCH,March,52.56,0.09,1371.93,-2047.94
MRN,Marden,51.18,0.49,1880.31,773.47
MAR,Margate,51.39,1.37,2991.79,345.05
MHR,Market Harborough,52.48,-0.91,107.13,-1885.96
MKR,Market Rasen,53.38,-0.34,830.26,-3728.00
MNC,Markinch,56.20,-3.13,-2702.92,-9466.68
MKT,Marks Tey,51.88,0.78,2247.29,-664.56
MLW,Marlow,51.57,-0.77,287.28,-33.02
MPL,Marple,53.40,-2.06,-1345.24,-3761.07
MSN,Marsden,53.60,-1.93,-1185.25,-4173.65
MSK,Marske,54.59,-1.02,-32.04,-6179.00
MGN,Marston Green,52.47,-1.76,-963.75,-1859.04
MTM,Martin Mill,51.17,1.35,2961.70,782.62
MAO,Martins Heron,51.41,-0.72,340.08,299.90
MTO,Marton,54.54,-1.20,-258.17,-6090.12
MYH,Maryhill,55.90,-4.30,-4184.10,-8847.56
MYL,Maryland,51.55,0.01,1264.25,18.23
MRY,Maryport,54.71,-3.49,-3163.18,-6431.98
MAT,Matlock,53.14,-1.56,-715.07,-3226.12
MTB,Matlock Bath,53.12,-1.56,-713.39,-3193.14
MAU,Mauldeth Road,53.43,-2.21,-1537.37,-3828.12
MAX,Maxwell Park,55.84,-4.29,-4167.33,-8726.47
MAY,Maybole,55.35,-4.69,-4668.91,-7742.38
MZH,Maze Hill,51.48,0.00,1260.76,146.39
MHS,Meadowhall,53.42,-1.41,-531.22,-3794.06
MEL,Meldreth,52.09,0.01,1267.91,-1091.98
MKM,Melksham,51.38,-2.14,-1455.58,356.49
MES,Melton,52.10,1.34,2949.09,-1119.96
MMO,Melton Mowbray,52.76,-0.89,136.59,-2457.02
MEN,Menheniot,50.43,-4.41,-4319.82,2299.45
MNN,Menston,53.89,-1.74,-938.32,-4762.79
MEO,Meols,53.40,-3.15,-2732.65,-3758.51
MEC,Meols Cop,53.65,-2.98,-2506.39,-4261.19
MEP,Meopham,51.39,0.36,1708.03,343.04
MEY,Merrytown,55.75,-3.98,-3774.71,-8545.10
MHM,Merstham,51.26,-0.15,1066.60,592.17
MER,Merthyr Tydfil,51.74,-3.38,-3014.69,-386.72
MEV,Merthyr Vale,51.69,-3.34,-2963.21,-268.66
MGM,Metheringham,53.14,-0.39,761.52,-3227.64
MCE,MetroCentre,54.96,-1.67,-849.94,-6935.57
MEX,Mexborough,53.49,-1.29,-373.07,-3945.06
MIC,Micheldever,51.18,-1.26,-337.80,758.75
MIK,Micklefield,53.79,-1.32,-418.34,-4552.40
MBR,Middlesbrough,54.58,-1.23,-304.96,-6162.06
MDL,Middlewood,53.36,-2.08,-1378.23,-3678.07
MDG,Midgham,51.40,-1.18,-232.87,323.59
MFH,Milford Haven,51.71,-5.04,-5118.79,-326.39
MLF,Milford (Surrey),51.16,-0.64,451.04,797.62
MIL,Mill Hill Broadway,51.61,-0.25,941.00,-118.37
MLH,Mill Hill (Lancashire),53.74,-2.50,-1907.38,-4443.14
MLB,Millbrook (Bedfordshire),52.05,-0.53,582.89,-1016.84
MBK,Millbrook (Hants),50.91,-1.43,-556.81,1310.72
MIN,Milliken Park,55.83,-4.53,-4476.75,-8700.76
MLM,Millom,54.21,-3.27,-2880.38,-5411.69
MIH,Mills Hill,53.55,-2.17,-1490.38,-4066.31
MLN,Milngavie,55.94,-4.32,-4200.75,-8936.60
MLR,Milnrow,53.61,-2.11,-1413.83,-4183.67
MKC,Milton Keynes Central,52.03,-0.77,277.53,-977.01
MFF,Minffordd,52.93,-4.08,-3909.70,-2794.15
MSR,Minster,51.33,1.32,2922.50,459.67
MIR,Mirfield,53.67,-1.69,-883.02,-4313.00
MIS,Mistley,51.94,1.08,2624.26,-792.30
MTC,Mitcham Eastfields,51.41,-0.15,1061.86,298.25
MIJ,Mitcham Junction,51.39,-0.16,1057.62,329.75
MOB,Mobberley,53.33,-2.33,-1694.35,-3616.93
MON,Monifieth,56.48,-2.82,-2307.66,-10035.33
MRS,Monks Risborough,51.74,-0.83,207.73,-368.75
MTP,Montpelier,51.47,-2.59,-2015.62,175.00
MTS,Montrose,56.71,-2.47,-1869.86,-10509.43
MRF,Moorfields,53.41,-2.99,-2523.84,-3777.09
MOG,Moorgate,0.00,0.00,1256.59,105042.88
MSD,Moorside,53.52,-2.35,-1719.08,-3995.91
MRP,Moorthorpe,53.59,-1.30,-393.80,-4155.86
MRR,Morar,56.97,-5.82,-6106.41,-11032.88
MRD,Morchard Road,50.83,-3.78,-3519.44,1472.90
MDS,Morden South,51.40,-0.20,1003.25,322.89
MCM,Morecambe,54.07,-2.87,-2373.07,-5125.47
MTN,Moreton (Dorset),50.70,-2.31,-1668.55,1739.37
MRT,Moreton (Merseyside),53.41,-3.11,-2680.62,-3775.79
MIM,Moreton-in-Marsh,51.99,-1.70,-893.90,-891.40
MFA,Morfa Mawddach,52.71,-4.03,-3842.93,-2347.94
MLY,Morley,53.75,-1.59,-755.52,-4472.63
MPT,Morpeth,55.16,-1.68,-871.81,-7350.73
MOR,Mortimer,51.37,-1.04,-53.02,372.28
MTL,Mortlake,51.47,-0.27,919.43,176.11
MSS,Moses Gate,53.56,-2.40,-1780.21,-4077.47
MOS,Moss Side,53.76,-2.94,-2466.11,-4502.18
MSL,Mossley,53.51,-2.04,-1326.17,-3993.29
MSH,Mossley Hill,53.38,-2.92,-2430.59,-3716.95
MPK,Mosspark,55.84,-4.35,-4242.11,-8732.80
MSO,Moston,53.52,-2.17,-1490.23,-4009.54
MTH,Motherwell,55.79,-3.99,-3795.04,-8632.64
MOT,Motspur Park,51.40,-0.24,954.10,325.35
MTG,Mottingham,51.44,0.05,1320.25,234.17
DBG,Mottisfont & Dunbridge,51.03,-1.55,-699.56,1061.52
MLD,Mouldsworth,53.23,-2.73,-2198.87,-3416.96
MCB,Moulsecoomb,50.85,-0.12,1106.29,1442.69
MFL,Mount Florida,55.83,-4.26,-4133.61,-8704.22
MTV,Mount Vernon,55.84,-4.14,-3974.98,-8730.78
MTA,Mountain Ash,51.68,-3.38,-3013.51,-257.83
MOO,Muir of Ord,57.52,-4.46,-4385.18,-12149.87
MUI,Muirend,55.81,-4.27,-4148.55,-8670.83
MUB,Musselburgh,55.93,-3.07,-2630.09,-8921.80
MYT,Mytholmroyd,53.73,-1.98,-1249.34,-4430.00
NFN,Nafferton,54.01,-0.39,767.17,-5005.96
NLS,Nailsea & Backwell,51.42,-2.75,-2222.17,275.83
NRN,Nairn,57.58,-3.87,-3641.61,-12276.64
NAN,Nantwich,53.06,-2.52,-1929.52,-3073.45
NAR,Narberth,51.80,-4.73,-4721.94,-498.35
NBR,Narborough,52.57,-1.20,-265.30,-2071.17
NVR,Navigation Road,53.40,-2.34,-1707.36,-3750.39
NTH,Neath,51.66,-3.81,-3558.45,-219.18
NMT,Needham Market,52.15,1.06,2591.20,-1218.05
NEI,Neilston,55.78,-4.43,-4342.20,-8615.05
NEL,Nelson,53.84,-2.21,-1543.16,-4645.98
NES,Neston,53.29,-3.06,-2618.18,-3540.45
NET,Netherfield,52.96,-1.08,-108.82,-2866.13
NRT,Nethertown,54.46,-3.57,-3253.85,-5913.17
NTL,Netley,50.87,-1.34,-440.35,1385.36
NBA,New Barnet,51.65,-0.17,1037.80,-191.09
NBC,New Beckenham,51.42,-0.04,1211.99,281.20
NBN,New Brighton,53.44,-3.05,-2599.72,-3835.57
NCE,New Clee,53.57,-0.06,1181.79,-4115.09
NWX,New Cross,51.48,-0.03,1214.86,159.80
NXG,New Cross Gate,51.48,-0.04,1205.51,161.93
NCK,New Cumnock,55.40,-4.18,-4035.36,-7840.19
NEH,New Eltham,51.44,0.07,1345.60,238.55
NHY,New Hey,53.60,-2.09,-1392.79,-4169.23
NHL,New Holland,53.70,-0.36,801.04,-4374.82
NHE,New Hythe,51.31,0.45,1831.95,492.64
NLN,New Lane,53.61,-2.87,-2370.03,-4190.19
NEM,New Malden,51.40,-0.26,932.90,307.07
NMC,New Mills Central,53.36,-2.01,-1279.99,-3688.02
NMN,New Mills Newtown,53.36,-2.01,-1283.60,-3677.40
NWM,New Milton,50.76,-1.66,-840.06,1628.06
NPD,New Pudsey,53.80,-1.68,-869.12,-4583.78
NSG,New Southgate,51.61,-0.14,1075.69,-120.90
NCT,Newark Castle,53.08,-0.81,228.19,-3107.68
NNG,Newark North Gate,53.08,-0.80,244.68,-3111.52
NBE,Newbridge,51.67,-3.14,-2718.26,-226.22
NBY,Newbury,51.40,-1.32,-416.44,320.17
NRC,Newbury Racecourse,51.40,-1.31,-397.39,318.52
NCL,Newcastle,54.97,-1.62,-788.80,-6954.87
NEW,Newcraighall,55.93,-3.09,-2654.84,-8924.38
NVH,Newhaven Harbour,50.79,0.05,1326.14,1558.69
NVN,Newhaven Town,50.79,0.05,1326.08,1548.37
NGT,Newington,51.35,0.67,2102.15,410.44
NMK,Newmarket,52.24,0.41,1770.33,-1391.97
NWE,Newport (Essex),51.98,0.22,1528.68,-866.13
NWP,Newport (S. Wales),51.59,-3.00,-2535.82,-71.23
NQY,Newquay,50.42,-5.08,-5162.69,2322.13
NSD,Newstead,53.07,-1.22,-289.33,-3090.75
NTA,Newton Abbot,50.53,-3.60,-3295.33,2088.88
NAY,Newton Aycliffe,54.61,-1.59,-753.85,-6232.56
NWN,Newton for Hyde,53.46,-2.07,-1357.52,-3875.16
NTN,Newton (Lanarks),55.82,-4.13,-3970.49,-8687.87
NTC,Newton St Cyres,50.78,-3.59,-3282.96,1580.83
NLW,Newton-le-Willows,53.45,-2.61,-2048.84,-3867.76
NWR,Newtonmore,57.06,-4.12,-3952.86,-11215.10
NOA,Newton-on-Ayr,55.47,-4.63,-4593.71,-7985.50
NWT,Newtown (Powys),52.51,-3.31,-2931.35,-1950.99
NNP,Ninian Park,51.48,-3.20,-2792.25,159.63
NIT,Nitshill,55.81,-4.36,-4257.47,-8673.91
NBT,Norbiton,51.41,-0.28,897.29,289.92
NRB,Norbury,51.41,-0.12,1102.39,292.05
NSB,Normans Bay,50.83,0.39,1749.16,1484.70
NOR,Normanton,53.70,-1.42,-543.71,-4370.68
NBW,North Berwick,56.06,-2.73,-2196.99,-9173.33
NCM,North Camp,51.28,-0.73,331.84,568.44
NDL,North Dulwich,51.45,-0.09,1145.40,204.30
NFA,North Fambridge,51.65,0.68,2118.70,-191.13
NLR,North Llanrwst,53.14,-3.80,-3552.76,-3237.71
NQU,North Queensferry,56.01,-3.39,-3036.56,-9082.57
NRD,North Road,54.54,-1.55,-708.71,-6074.64
NSH,North Sheen,51.47,-0.29,894.34,182.11
NWA,North Walsham,52.82,1.38,3007.53,-2571.59
NWB,North Wembley,51.56,-0.30,872.14,-15.93
NTR,Northallerton,54.33,-1.44,-566.20,-5660.77
NMP,Northampton,52.24,-0.91,109.94,-1391.05
NFD,Northfield,52.41,-1.97,-1229.63,-1738.83
NFL,Northfleet,51.45,0.32,1666.78,221.96
NLT,Northolt Park,51.56,-0.36,802.03,-5.81
NUM,Northumberland Park,51.60,-0.05,1188.83,-95.59
NWI,Northwich,53.26,-2.50,-1901.29,-3477.36
NTB,Norton Bridge,52.87,-2.19,-1513.81,-2673.07
NRW,Norwich,52.63,1.31,2909.34,-2185.00
NWD,Norwood Junction,51.40,-0.08,1161.46,321.45
NOT,Nottingham,52.95,-1.15,-193.89,-2837.00
NUN,Nuneaton,52.53,-1.46,-594.78,-1979.64
NHD,Nunhead,51.47,-0.05,1189.95,178.92
NNT,Nunthorpe,54.53,-1.17,-222.41,-6057.69
NUT,Nutbourne,50.85,-0.88,139.91,1444.03
NUF,Nutfield,51.23,-0.13,1087.42,668.14
OKN,Oakengates,52.69,-2.45,-1842.18,-2319.96
OKM,Oakham,52.67,-0.73,328.09,-2276.80
OKL,Oakleigh Park,51.64,-0.17,1046.39,-168.91
OBN,Oban,56.41,-5.47,-5666.31,-9897.52
OCK,Ockendon,51.52,0.29,1623.95,66.81
OLY,Ockley,51.15,-0.34,831.64,821.68
OKE,Okehampton,0.00,0.00,1256.59,105042.88
OHL,Old Hill,52.47,-2.06,-1343.89,-1866.67
ORN,Old Roan,53.49,-2.95,-2475.65,-3936.70
OLD,Old Street,51.53,-0.09,1144.62,58.98
OLF,Oldfield Park,51.38,-2.38,-1753.78,357.75
OLM,Oldham Mumps,53.54,-2.10,-1401.97,-4047.06
OLW,Oldham Werneth,53.54,-2.13,-1436.31,-4042.25
OLT,Olton,52.44,-1.80,-1025.34,-1800.61
ORE,Ore,50.87,0.59,2004.76,1401.48
OMS,Ormskirk,53.57,-2.88,-2388.03,-4103.90
ORP,Orpington,51.37,0.09,1369.20,369.32
ORR,Orrell,53.53,-2.71,-2169.87,-4024.37
OPK,Orrell Park,53.46,-2.96,-2491.14,-3885.77
OTF,Otford,51.31,0.20,1505.47,492.32
OUN,Oulton Broad North,52.48,1.72,3426.48,-1880.60
OUS,Oulton Broad South,52.47,1.71,3416.68,-1864.24
OUT,Outwood,53.72,-1.51,-653.04,-4401.50
OVE,Overpool,53.28,-2.92,-2442.44,-3523.58
OVR,Overton,51.25,-1.26,-336.96,612.74
OXN,Oxenholme Lake District,54.31,-2.72,-2186.26,-5604.07
OXF,Oxford,51.75,-1.27,-349.78,-404.88
OXS,Oxshott,51.34,-0.36,798.25,444.97
OXT,Oxted,51.26,0.00,1250.50,604.89
PDW,Paddock Wood,51.18,0.39,1748.77,759.02
PDG,Padgate,53.41,-2.56,-1977.02,-3771.46
PGN,Paignton,50.43,-3.56,-3251.25,2282.16
PCN,Paisley Canal,55.84,-4.42,-4338.21,-8731.26
PYG,Paisley Gilmour Street,55.85,-4.42,-4339.10,-8746.07
PYJ,Paisley St James,55.85,-4.44,-4361.79,-8755.79
PAL,Palmers Green,51.62,-0.11,1117.04,-130.46
PAN,Pangbourne,51.49,-1.09,-122.53,141.38
PNL,Pannal,53.96,-1.53,-682.79,-4897.24
PTF,Pantyffynnon,51.78,-4.00,-3799.02,-456.59
PAR,Par,50.36,-4.70,-4693.49,2443.92
PBL,Parbold,53.59,-2.77,-2247.40,-4148.69
PKT,Park Street,51.73,-0.34,826.24,-347.75
PKS,Parkstone (Dorset),50.72,-1.95,-1208.27,1694.56
PSN,Parson Street,51.43,-2.61,-2042.16,247.04
PTK,Partick,55.87,-4.31,-4192.77,-8791.99
PRN,Parton,54.57,-3.58,-3273.61,-6143.30
PWY,Patchway,51.53,-2.56,-1984.47,58.80
PAT,Patricroft,53.49,-2.36,-1724.28,-3933.07
PTT,Patterton,55.79,-4.33,-4225.76,-8630.04
PEA,Peartree,52.90,-1.47,-605.91,-2736.93
PMR,Peckham Rye,51.47,-0.07,1168.82,172.67
PEG,Pegswood,55.18,-1.64,-823.20,-7381.64
PEM,Pemberton,53.53,-2.67,-2119.32,-4025.21
PBY,Pembrey & Burry Port,51.68,-4.25,-4115.71,-262.31
PMB,Pembroke,51.67,-4.91,-4948.14,-240.75
PMD,Pembroke Dock,51.69,-4.94,-4988.62,-283.48
PNA,Penally,51.66,-4.72,-4715.47,-212.17
PEN,Penarth,51.44,-3.17,-2758.17,242.25
PCD,Pencoed,51.52,-3.50,-3170.51,61.48
PGM,Pengam,51.67,-3.23,-2828.55,-235.67
PNE,Penge East,51.42,-0.05,1188.11,275.98
PNW,Penge West,51.42,-0.06,1179.65,279.60
PHG,Penhelig,52.55,-4.04,-3846.55,-2018.99
PNS,Penistone,53.53,-1.62,-795.46,-4015.37
PKG,Penkridge,52.72,-2.12,-1423.70,-2381.29
PMW,Penmaenmawr,53.27,-3.92,-3705.50,-3495.74
PNM,Penmere,50.15,-5.08,-5171.91,2862.69
PER,Penrhiwceiber,51.67,-3.36,-2992.77,-234.59
PRH,Penrhyndeudraeth,52.93,-4.06,-3883.90,-2799.64
PNR,Penrith,54.66,-2.76,-2231.51,-6330.57
PYN,Penryn,50.17,-5.11,-5207.24,2820.95
PES,Pensarn (Gwynedd),52.83,-4.11,-3944.10,-2599.72
PHR,Penshurst,51.20,0.17,1475.99,728.31
PTB,Pentre-Bach,51.73,-3.36,-2995.77,-346.84
PNY,Pen-y-Bont,52.27,-3.32,-2944.69,-1465.30
BPC,Penychain,52.90,-4.34,-4230.64,-2746.79
PNF,Penyffordd,53.14,-3.05,-2606.90,-3236.21
PNZ,Penzance,50.12,-5.53,-5740.35,2919.95
PRW,Perranwell,50.22,-5.11,-5208.38,2726.79
PRY,Perry Barr,52.52,-1.90,-1148.83,-1959.48
PSH,Pershore,52.13,-2.07,-1363.30,-1172.60
PTH,Perth,56.39,-3.44,-3094.05,-9857.21
PBO,Peterborough,52.57,-0.25,940.63,-2078.67
PTR,Petersfield,51.01,-0.94,66.32,1116.69
PET,Petts Wood,51.39,0.07,1350.80,338.56
PEV,Pevensey & Westham,50.82,0.32,1667.39,1505.70
PEB,Pevensey Bay,50.82,0.34,1690.28,1502.31
PEW,Pewsey,51.34,-1.77,-982.79,433.17
PIL,Pilning,51.56,-2.63,-2065.94,-3.74
PIN,Pinhoe,50.74,-3.47,-3133.86,1665.08
PIT,Pitlochry,56.70,-3.74,-3467.81,-10488.45
PSE,Pitsea,51.56,0.51,1896.91,-11.37
PLS,Pleasington,53.73,-2.54,-1960.99,-4433.97
PLK,Plockton,57.33,-5.67,-5909.23,-11774.22
PLC,Pluckley,51.16,0.75,2201.84,811.56
PLM,Plumley,53.27,-2.42,-1803.58,-3504.30
PMP,Plumpton,50.93,-0.06,1180.48,1275.73
PLU,Plumstead,51.49,0.08,1363.16,132.41
PLY,Plymouth,50.38,-4.14,-3983.54,2398.07
POK,Pokesdown,50.73,-1.83,-1051.63,1678.31
PLG,Polegate,50.82,0.25,1567.37,1494.64
PSW,Polesworth,52.63,-1.61,-779.52,-2182.46
PWE,Pollokshaws East,55.82,-4.29,-4165.76,-8699.96
PWW,Pollokshaws West,55.82,-4.30,-4183.67,-8698.14
PLE,Pollokshields East,55.84,-4.27,-4141.93,-8733.27
PLW,Pollokshields West,55.84,-4.28,-4150.97,-8726.41
PMT,Polmont,55.98,-3.71,-3441.75,-9026.00
POL,Polsloe Bridge,50.73,-3.50,-3171.77,1678.32
PON,Ponders End,51.64,-0.03,1212.99,-179.23
PTD,Pontarddulais,51.72,-4.05,-3859.87,-331.78
PFR,Pontefract Baghill,53.69,-1.30,-391.77,-4354.36
PFM,Pontefract Monkhill,53.70,-1.30,-390.86,-4369.01
POT,Pontefract Tanshelf,53.69,-1.32,-411.45,-4358.94
PLT,Pontlottyn,51.75,-3.28,-2890.34,-390.89
PYC,Pontyclun,51.52,-3.39,-3034.47,63.19
PYP,Pont-y-Pant,53.07,-3.86,-3628.64,-3077.37
PPL,Pontypool & New Inn,51.70,-3.01,-2555.55,-291.72
PPD,Pontypridd,51.60,-3.34,-2969.28,-90.83
POO,Poole,50.72,-1.98,-1251.74,1702.07
POP,Poppleton,53.98,-1.15,-196.04,-4933.41
PTG,Port Glasgow,55.93,-4.69,-4674.64,-8921.64
PSL,Port Sunlight,53.35,-3.00,-2535.04,-3656.26
PTA,Port Talbot Parkway,51.59,-3.78,-3525.69,-75.24
PTC,Portchester,50.85,-1.12,-165.24,1438.57
POR,Porth,51.61,-3.41,-3052.52,-117.66
PTM,Porthmadog,52.93,-4.13,-3972.28,-2803.90
PLN,Portlethen,57.06,-2.13,-1432.95,-11219.65
PLD,Portslade,50.84,-0.21,996.91,1465.18
PMS,Portsmouth & Southsea,50.80,-1.09,-123.09,1540.97
PMA,Portsmouth Arms,50.96,-3.95,-3739.77,1217.99
PMH,Portsmouth Harbour,50.80,-1.11,-144.50,1544.09
PPK,Possilpark & Parkhouse,55.89,-4.26,-4128.57,-8833.47
PBR,Potters Bar,51.70,-0.19,1013.31,-290.35
PFY,Poulton-le-Fylde,53.85,-2.99,-2525.24,-4672.72
PYT,Poynton,53.35,-2.13,-1442.81,-3658.57
PRS,Prees,52.90,-2.69,-2145.14,-2740.16
PSC,Prescot,53.42,-2.80,-2283.54,-3807.65
PRT,Prestatyn,53.34,-3.41,-3052.43,-3630.28
PRB,Prestbury,53.29,-2.15,-1456.81,-3542.42
PRE,Preston,53.76,-2.71,-2168.39,-4486.75
PRP,Preston Park,50.85,-0.16,1060.35,1444.27
PST,Prestonpans,55.95,-2.97,-2505.62,-8961.55
PRA,Prestwick International Airport,55.51,-4.61,-4578.96,-8056.77
PTW,Prestwick Town,55.50,-4.62,-4580.21,-8041.82
PTL,Priesthill & Darnley,55.81,-4.34,-4235.89,-8674.41
PRR,Princes Risborough,51.72,-0.84,189.33,-332.27
PRL,Prittlewell,51.55,0.71,2155.40,8.34
PRU,Prudhoe,54.97,-1.86,-1101.91,-6950.64
PUL,Pulborough,50.96,-0.52,603.30,1217.28
PFL,Purfleet,51.48,0.24,1556.05,150.30
PUR,Purley,51.34,-0.11,1112.91,442.94
PUO,Purley Oaks,51.35,-0.10,1131.57,423.27
PUT,Putney,51.46,-0.22,982.81,190.46
PWL,Pwllheli,52.89,-4.42,-4329.26,-2716.12
PYL,Pyle,51.53,-3.70,-3420.39,59.18
QYD,Quakers Yard,51.66,-3.32,-2945.79,-215.85
QBR,Queenborough,51.42,0.75,2204.71,283.51
QPK,Queens Park (Glasgow),55.84,-4.27,-4140.32,-8722.33
QPW,Queens Park (London),51.53,-0.20,997.35,42.41
QRP,Queens Road Peckham,51.47,-0.06,1183.77,164.46
QRB,Queenstown Road (Battersea),51.47,-0.15,1070.89,163.35
QUI,Quintrel Downs,50.40,-5.03,-5104.63,2344.79
RDF,Radcliffe (Notts),52.95,-1.04,-54.38,-2840.52
RDT,Radlett,51.69,-0.32,855.37,-265.70
RAD,Radley,51.69,-1.24,-312.25,-267.78
RDR,Radyr,51.52,-3.25,-2851.19,77.99
RNF,Rainford,53.52,-2.79,-2271.27,-3998.25
RNM,Rainham (Essex),51.52,0.19,1497.83,76.26
RAI,Rainham (Kent),51.37,0.61,2029.76,384.03
RNH,Rainhill,53.42,-2.77,-2242.09,-3794.53
RAM,Ramsgate,51.34,1.41,3034.83,435.53
RGW,Ramsgreave & Wilpshire,53.78,-2.48,-1878.30,-4533.99
RAN,Rannoch,56.69,-4.58,-4531.79,-10454.91
RAU,Rauceby,52.99,-0.46,679.12,-2914.52
RAV,Ravenglass for Eskdale,54.36,-3.41,-3054.74,-5706.70
RVB,Ravensbourne,51.41,-0.01,1247.84,287.13
RVN,Ravensthorpe,53.68,-1.66,-837.23,-4321.04
RWC,Rawcliffe,53.69,-0.96,41.39,-4348.58
RLG,Rayleigh,51.59,0.60,2016.22,-70.64
RAY,Raynes Park,51.41,-0.23,965.71,296.32
RDG,Reading,51.46,-0.97,27.48,195.61
RDW,Reading West,51.46,-0.99,4.16,202.39
REC,Rectory Road,51.56,-0.07,1170.09,-8.14
RDB,Redbridge,50.92,-1.47,-602.74,1293.52
RCC,Redcar Central,54.62,-1.07,-97.75,-6237.70
RCE,Redcar East,54.61,-1.05,-74.26,-6223.49
RDN,Reddish North,53.45,-2.16,-1470.44,-3860.34
RDS,Reddish South,53.44,-2.16,-1472.47,-3834.88
RDC,Redditch,52.31,-1.95,-1203.58,-1531.29
RDH,Redhill,51.24,-0.17,1046.78,640.97
RDA,Redland,51.47,-2.60,-2030.55,176.04
RED,Redruth,50.23,-5.23,-5352.73,2692.65
REE,Reedham (Norfolk),52.56,1.56,3229.11,-2057.35
RHM,Reedham (Surrey),51.33,-0.12,1099.93,453.60
REI,Reigate,51.24,-0.20,998.81,637.39
RTN,Renton,55.97,-4.59,-4543.49,-8996.86
RET,Retford,53.32,-0.95,57.80,-3586.80
RHI,Rhiwbina,51.52,-3.21,-2808.14,68.47
RIA,Rhoose Cardiff International Airport,51.39,-3.35,-2979.41,341.73
RHO,Rhosneigr,53.23,-4.51,-4443.01,-3423.14
RHL,Rhyl,53.32,-3.49,-3156.11,-3593.45
RHY,Rhymney,51.76,-3.29,-2903.42,-415.76
RHD,Ribblehead,54.21,-2.36,-1729.20,-5401.54
RIL,Rice Lane,53.46,-2.96,-2489.88,-3877.36
RMD,Richmond,51.46,-0.30,875.86,186.81
RIC,Rickmansworth,51.64,-0.47,658.04,-174.13
RDD,Riddlesdown,51.33,-0.10,1130.82,452.57
RID,Ridgmont,52.03,-0.59,504.66,-960.94
RDM,Riding Mill,54.95,-1.97,-1235.86,-6915.81
RCA,Risca & Pontymister,51.61,-3.09,-2654.17,-104.03
RIS,Rishton,53.76,-2.42,-1804.20,-4500.37
RBR,Robertsbridge,50.98,0.47,1849.46,1161.08
ROB,Roby,53.41,-2.86,-2355.33,-3780.11
RCD,Rochdale,53.61,-2.15,-1466.98,-4188.16
ROC,Roche,50.42,-4.83,-4852.23,2315.66
RTR,Rochester,51.39,0.51,1901.95,344.82
RFD,Rochford,51.58,0.70,2144.81,-54.91
RFY,Rock Ferry,53.37,-3.01,-2551.33,-3704.39
ROG,Rogart,57.99,-4.16,-4002.29,-13109.09
ROR,Rogerstone,51.60,-3.07,-2621.80,-83.18
ROL,Rolleston,53.07,-0.90,119.92,-3078.59
RMB,Roman Bridge,53.04,-3.92,-3703.15,-3035.16
RMF,Romford,51.57,0.18,1488.35,-40.85
RML,Romiley,53.41,-2.09,-1385.60,-3788.50
ROM,Romsey,50.99,-1.49,-631.81,1145.61
ROO,Roose,54.12,-3.19,-2783.61,-5216.78
RSG,Rose Grove,53.79,-2.28,-1629.81,-4547.53
RSH,Rose Hill Marple,53.40,-2.08,-1368.81,-3751.71
ROS,Rosyth,56.05,-3.43,-3077.94,-9149.84
RMC,Rotherham Central,53.43,-1.36,-463.97,-3825.38
RNR,Roughton Road,52.92,1.30,2900.46,-2777.64
RLN,Rowlands Castle,50.89,-0.96,45.68,1350.10
ROW,Rowley Regis,52.48,-2.03,-1311.87,-1879.69
RYB,Roy Bridge,56.89,-4.84,-4861.10,-10867.13
RYN,Roydon,51.78,0.04,1302.45,-449.68
RYS,Royston,52.05,-0.03,1222.55,-1015.30
RUA,Ruabon,52.96,-3.04,-2591.28,-2863.51
RUF,Rufford,53.64,-2.81,-2293.37,-4238.49
RUG,Rugby,52.38,-1.25,-324.90,-1679.56
RGT,Rugeley Town,52.75,-1.94,-1192.94,-2444.20
RGL,Rugeley Trent Valley,52.77,-1.93,-1183.72,-2476.07
RUN,Runcorn,53.34,-2.74,-2207.76,-3634.75
RUE,Runcorn East,53.33,-2.67,-2113.96,-3610.77
RKT,Ruskington,53.04,-0.38,775.04,-3029.15
RUS,Ruswarp,54.47,-0.63,462.65,-5940.16
RUT,Rutherglen,55.83,-4.21,-4070.47,-8711.94
RYR,Ryde St Johns Road,50.72,-1.16,-206.13,1692.01
RYD,Ryde Esplanade,50.73,-1.16,-210.18,1674.68
RYP,Ryde Pier Head,50.74,-1.16,-210.63,1661.82
RRB,Ryder Brow,53.46,-2.17,-1492.19,-3876.04
RYE,Rye,50.95,0.73,2180.72,1227.43
RYH,Rye House,51.77,0.01,1263.72,-437.31
SFD,Salford Central,53.48,-2.26,-1596.00,-3928.29
SLD,Salford Crescent,53.49,-2.28,-1621.57,-3936.07
SAF,Salfords,51.20,-0.16,1051.09,719.32
SAH,Salhouse,52.68,1.39,3016.33,-2283.66
SAL,Salisbury,51.07,-1.81,-1027.96,986.64
SAE,Saltaire,53.84,-1.79,-1009.28,-4653.87
STS,Saltash,50.41,-4.21,-4066.75,2337.90
SLB,Saltburn,54.58,-0.97,24.59,-6170.92
SLT,Saltcoats,55.63,-4.78,-4794.12,-8311.14
SAM,Saltmarshe,53.72,-0.81,232.17,-4416.41
SLW,Salwick,53.78,-2.82,-2309.59,-4537.37
SMC,Sampford Courtenay,0.00,0.00,1256.59,105042.88
SNA,Sandal & Agbrigg,53.66,-1.48,-617.06,-4295.77
SDB,Sandbach,53.15,-2.39,-1770.50,-3250.63
SNR,Sanderstead,51.35,-0.09,1138.12,420.75
SDL,Sandhills,53.43,-2.99,-2526.77,-3820.64
SND,Sandhurst,51.35,-0.80,239.87,424.43
SDG,Sandling,51.09,1.07,2604.84,946.25
SAN,Sandown,50.66,-1.16,-213.49,1829.54
SDP,Sandplace,50.39,-4.46,-4389.71,2379.88
SAD,Sandwell & Dudley,52.51,-2.01,-1287.67,-1943.45
SDW,Sandwich,51.27,1.34,2954.56,580.44
SDY,Sandy,52.12,-0.28,900.97,-1161.30
SNK,Sankey for Penketh,53.39,-2.65,-2095.47,-3744.30
SQH,Sanquhar,55.37,-3.92,-3706.78,-7773.84
SRR,Sarn,51.54,-3.59,-3283.62,32.73
SDF,Saundersfoot,51.72,-4.72,-4708.54,-340.89
SDR,Saunderton,51.68,-0.83,212.61,-246.78
SAW,Sawbridgeworth,51.81,0.16,1459.48,-528.87
SXY,Saxilby,53.27,-0.66,416.77,-3489.09
SAX,Saxmundham,52.21,1.49,3141.22,-1345.02
SCA,Scarborough,54.28,-0.41,743.49,-5552.23
SCT,Scotscalder,58.48,-3.55,-3235.73,-14116.19
SCH,Scotstounhill,55.89,-4.35,-4248.52,-8823.07
SCU,Scunthorpe,53.59,-0.65,433.29,-4139.00
SML,Sea Mills,51.48,-2.65,-2095.02,153.32
SEF,Seaford,50.77,0.10,1383.24,1593.22
SFL,Seaforth & Litherland,53.47,-3.01,-2544.22,-3894.33
SEA,Seaham,54.84,-1.34,-439.28,-6686.80
SEM,Seamer,54.24,-0.42,729.16,-5472.68
SSC,Seascale,54.40,-3.48,-3150.77,-5788.24
SEC,Seaton Carew,54.66,-1.20,-261.59,-6323.45
SRG,Seer Green & Jordans,51.61,-0.61,488.37,-111.82
SBY,Selby,53.78,-1.06,-88.50,-4540.77
SRS,Selhurst,51.39,-0.09,1145.36,332.29
SEL,Sellafield,54.42,-3.51,-3183.10,-5830.93
SEG,Selling,51.28,0.94,2446.54,565.25
SLY,Selly Oak,52.44,-1.94,-1191.64,-1807.68
SET,Settle,54.07,-2.28,-1627.84,-5118.48
SVK,Seven Kings,51.56,0.10,1378.40,-18.87
SVS,Seven Sisters,51.58,-0.07,1161.87,-56.49
SEV,Sevenoaks,51.28,0.18,1486.36,566.27
SVB,Severn Beach,51.56,-2.66,-2112.94,-9.72
STJ,Severn Tunnel Junction,51.58,-2.78,-2256.64,-60.89
SFR,Shalford,51.21,-0.57,539.75,693.70
SHN,Shanklin,50.63,-1.18,-235.56,1876.30
SHA,Shaw & Crompton,53.58,-2.09,-1386.22,-4121.62
SHW,Shawford,51.02,-1.33,-423.19,1085.93
SHL,Shawlands,55.83,-4.29,-4171.95,-8709.11
SSS,Sheerness-on-Sea,51.44,0.76,2215.93,231.71
SHF,Sheffield,53.38,-1.46,-592.54,-3715.28
SED,Shelford,52.15,0.14,1433.62,-1210.39
SNF,Shenfield,51.63,0.33,1673.76,-155.05
SEN,Shenstone,52.64,-1.84,-1076.52,-2209.21
SPB,Shepherd's Bush,51.51,-0.22,981.32,100.85
SPH,Shepherds Well,51.19,1.23,2812.08,746.51
SPY,Shepley,53.59,-1.70,-898.49,-4145.12
SHP,Shepperton,51.40,-0.45,691.55,321.88
STH,Shepreth,52.11,0.03,1296.21,-1139.75
SHE,Sherborne,50.94,-2.51,-1921.72,1244.46
SIE,Sherburn-in-Elmet,53.80,-1.23,-302.39,-4568.86
SHM,Sheringham,52.94,1.21,2788.56,-2824.18
SLS,Shettleston,55.85,-4.16,-4004.63,-8758.68
SDM,Shieldmuir,55.78,-3.96,-3747.84,-8603.74
SFN,Shifnal,52.67,-2.37,-1743.10,-2264.28
SHD,Shildon,54.63,-1.64,-814.41,-6259.24
SHI,Shiplake,51.51,-0.88,140.46,88.77
SHY,Shipley,53.83,-1.77,-986.07,-4641.35
SPP,Shippea Hill,52.43,0.41,1779.36,-1783.73
SIP,Shipton,51.87,-1.59,-757.71,-633.39
SHB,Shirebrook,53.20,-1.20,-264.15,-3360.81
SHH,Shirehampton,51.48,-2.68,-2130.63,143.02
SRO,Shireoaks,53.32,-1.17,-220.86,-3606.49
SRL,Shirley,52.40,-1.85,-1077.01,-1729.13
SRY,Shoeburyness,51.53,0.80,2262.48,48.51
SHO,Sholing,50.90,-1.36,-468.91,1340.77
SEH,Shoreham (Kent),51.33,0.19,1495.49,453.48
SSE,Shoreham-by-Sea,50.83,-0.27,912.96,1467.74
SRT,Shortlands,51.41,0.00,1260.12,303.95
SHT,Shotton,53.21,-3.04,-2586.14,-3377.71
SHS,Shotts,55.82,-3.80,-3547.16,-8687.60
SHR,Shrewsbury,52.71,-2.75,-2220.01,-2356.63
SID,Sidcup,51.43,0.10,1387.27,245.24
SIL,Sileby,52.73,-1.11,-146.81,-2396.58
SIC,Silecroft,54.23,-3.34,-2961.67,-5443.06
SLK,Silkstone Common,53.53,-1.56,-720.75,-4034.56
SLV,Silver Street,51.62,-0.07,1164.72,-123.17
SVR,Silverdale,54.17,-2.80,-2289.44,-5328.33
SIN,Singer,55.91,-4.41,-4315.05,-8868.98
SIT,Sittingbourne,51.34,0.73,2185.76,433.60
SKG,Skegness,53.14,0.33,1678.88,-3236.14
SKE,Skewen,51.66,-3.85,-3608.15,-217.20
SKI,Skipton,53.96,-2.03,-1305.55,-4897.98
SGR,Slade Green,51.47,0.19,1497.52,177.26
SWT,Slaithwaite,53.62,-1.88,-1123.06,-4215.71
SLA,Slateford,55.93,-3.24,-2845.42,-8907.74
SLR,Sleaford,53.00,-0.41,737.63,-2935.44
SLH,Sleights,54.46,-0.66,418.75,-5921.54
SLO,Slough,51.51,-0.59,508.51,87.43
SMA,Small Heath,52.46,-1.86,-1094.99,-1852.06
SAB,Smallbrook Junction,50.71,-1.16,-204.24,1718.79
SGB,Smethwick Galton Bridge,52.50,-1.98,-1248.15,-1929.52
SMR,Smethwick Rolfe Street,52.50,-1.97,-1235.69,-1918.53
SMI,Smitham,51.32,-0.13,1086.72,473.41
SMB,Smithy Bridge,53.63,-2.11,-1416.21,-4234.40
SNI,Snaith,53.69,-1.03,-44.10,-4356.87
SDA,Snodland,51.33,0.45,1823.49,457.53
SWO,Snowdown,51.22,1.21,2791.58,691.70
SOR,Sole Street,51.38,0.38,1734.77,349.72
SOL,Solihull,52.41,-1.79,-1005.21,-1751.48
SYT,Somerleyton,52.51,1.65,3346.23,-1946.76
SAT,South Acton,51.50,-0.27,914.92,112.24
SBK,South Bank,54.58,-1.18,-231.54,-6171.69
SBM,South Bermondsey,51.49,-0.05,1187.44,135.79
SCY,South Croydon,51.36,-0.09,1138.40,390.83
SES,South Elmsall,53.59,-1.28,-368.38,-4156.16
SGN,South Greenford,51.53,-0.34,830.82,43.95
SGL,South Gyle,55.94,-3.30,-2916.27,-8927.43
SOH,South Hampstead,51.54,-0.18,1030.91,27.12
SOK,South Kenton,51.57,-0.31,866.47,-31.45
SMO,South Merton,51.40,-0.21,996.68,308.80
SOM,South Milford,53.78,-1.25,-324.96,-4538.65
SRU,South Ruislip,51.56,-0.40,751.66,-4.36
STO,South Tottenham,51.58,-0.07,1165.77,-52.23
SWS,South Wigston,52.58,-1.13,-177.69,-2093.45
SOF,South Woodham Ferrers,51.65,0.61,2023.85,-193.32
STL,Southall,51.51,-0.38,777.75,99.48
SOA,Southampton Airpt Parkway,50.95,-1.36,-467.33,1230.61
SOU,Southampton Central,50.91,-1.41,-531.20,1318.97
SOB,Southbourne,50.85,-0.91,108.09,1439.54
SBU,Southbury,51.65,-0.05,1189.53,-190.85
SEE,Southease,50.83,0.03,1295.35,1474.00
SOC,Southend Central,51.54,0.71,2156.73,36.10
SOE,Southend East,51.54,0.73,2182.14,32.21
SOV,Southend Victoria,51.54,0.71,2156.44,27.04
SMN,Southminster,51.66,0.84,2312.88,-215.66
SOP,Southport,53.65,-3.00,-2540.61,-4261.93
SWK,Southwick,50.83,-0.24,956.76,1471.69
SOW,Sowerby Bridge,53.71,-1.91,-1155.14,-4386.99
SPA,Spalding,52.79,-0.16,1058.19,-2514.36
SBR,Spean Bridge,56.89,-4.92,-4967.79,-10870.49
SPI,Spital,53.34,-2.99,-2529.83,-3637.28
SPO,Spondon,52.91,-1.41,-528.03,-2765.10
SPN,Spooner Row,52.54,1.09,2630.68,-1997.23
SRI,Spring Road,52.44,-1.84,-1067.16,-1810.60
SPR,Springburn,55.88,-4.23,-4090.73,-8816.08
SPF,Springfield,56.29,-3.05,-2603.86,-9658.10
SQU,Squires Gate,53.78,-3.05,-2600.04,-4527.31
SAC,St Albans,51.75,-0.33,842.35,-398.72
SAA,St Albans Abbey,51.74,-0.34,823.34,-387.02
SAR,St Andrews Road,51.51,-2.70,-2153.94,85.55
SAS,St Annes-on-the-Sea,53.75,-3.03,-2574.37,-4479.68
SAU,St Austell,50.34,-4.79,-4800.60,2476.13
SBS,St Bees,54.49,-3.59,-3285.45,-5985.76
SBF,St Budeaux Ferry Road,50.40,-4.19,-4038.28,2350.05
SBV,St Budeaux Victoria Road,50.40,-4.19,-4040.11,2348.46
SCR,St Columb Road,50.40,-4.94,-4992.10,2354.79
SDN,St Denys,50.92,-1.39,-499.07,1289.20
SER,St Erth,50.17,-5.44,-5628.87,2820.53
SGM,St Germans,50.39,-4.31,-4192.33,2364.56
SNH,St Helens Central,53.45,-2.73,-2196.44,-3867.89
SHJ,St Helens Junction,53.43,-2.70,-2157.94,-3827.96
SIH,St Helier,51.39,-0.20,1004.75,335.76
SIV,St Ives (Cornwall),50.21,-5.48,-5669.93,2742.76
SJP,St James Park,50.73,-3.52,-3199.18,1679.11
SJS,St James Street,51.58,-0.03,1215.08,-52.74
SAJ,St Johns,51.47,-0.02,1227.21,174.79
SKN,St Keyne Wishing Well Halt,50.42,-4.46,-4386.04,2305.90
SLQ,St Leonards Warrior Square,50.86,0.56,1965.48,1424.05
SMG,St Margarets (Gr London),51.46,-0.32,851.44,203.10
SMT,St Margarets (Herts),51.79,0.00,1258.20,-474.86
SMY,St Mary Cray,51.39,0.11,1392.24,326.01
STM,St Michaels,53.38,-2.95,-2477.84,-3709.95
SNO,St Neots,52.23,-0.25,943.69,-1378.98
STA,Stafford,52.80,-2.12,-1427.16,-2545.09
SNS,Staines,51.43,-0.50,620.24,249.24
SLL,Stallingborough,53.59,-0.18,1024.30,-4140.87
SYB,Stalybridge,53.48,-2.06,-1351.10,-3931.58
SMD,Stamford,52.65,-0.48,648.90,-2226.22
SMH,Stamford Hill,51.57,-0.08,1159.62,-40.11
SFO,Stanford-le-Hope,51.51,0.42,1791.61,82.35
SNT,Stanlow & Thornton,53.28,-2.84,-2336.63,-3511.65
SSD,Stansted Airport,51.89,0.26,1586.45,-680.14
SST,Stansted Mountfitchet,51.90,0.20,1509.21,-706.04
SPU,Staplehurst,51.17,0.55,1952.74,781.00
SRD,Stapleton Road,51.47,-2.57,-1988.93,177.83
SBE,Starbeck,54.00,-1.50,-641.91,-4980.12
SCS,Starcross,50.63,-3.45,-3103.77,1888.76
SVL,Staveley (Cumbria),54.38,-2.82,-2309.11,-5747.09
SCF,Stechford,52.48,-1.81,-1033.84,-1894.97
SON,Steeton & Silsden,53.90,-1.94,-1202.14,-4778.92
SPS,Stepps,55.89,-4.14,-3980.28,-8832.79
SVG,Stevenage,51.90,-0.21,994.66,-706.83
STV,Stevenston,55.63,-4.75,-4751.75,-8311.95
SWR,Stewartby,52.07,-0.52,598.08,-1047.90
STT,Stewarton,55.68,-4.52,-4457.40,-8409.49
STG,Stirling,56.12,-3.94,-3720.81,-9301.22
SPT,Stockport,53.41,-2.16,-1478.98,-3770.95
SKS,Stocksfield,54.95,-1.92,-1167.54,-6911.73
SSM,Stocksmoor,53.59,-1.72,-923.10,-4155.66
STK,Stockton,54.57,-1.32,-411.47,-6144.01
SKM,Stoke Mandeville,51.79,-0.78,264.95,-474.77
SKW,Stoke Newington,51.57,-0.07,1164.41,-21.30
SOT,Stoke-on-Trent,53.01,-2.18,-1501.72,-2960.92
SNE,Stone,52.91,-2.16,-1468.91,-2757.98
SCG,Stone Crossing,51.45,0.26,1590.20,210.79
SBP,Stonebridge Park,51.54,-0.28,907.75,21.74
SOG,Stonegate,51.02,0.36,1716.79,1089.69
STN,Stonehaven,56.97,-2.23,-1557.77,-11027.02
SHU,Stonehouse,51.75,-2.28,-1626.32,-389.37
SNL,Stoneleigh,51.36,-0.25,942.10,389.94
SBJ,Stourbridge Junction,52.45,-2.13,-1442.10,-1819.10
SBT,Stourbridge Town,52.46,-2.14,-1452.18,-1835.38
SMK,Stowmarket,52.19,1.00,2521.31,-1293.69
STR,Stranraer,54.91,-5.02,-5098.21,-6835.43
SRA,Stratford (London),51.54,0.00,1251.96,27.33
SAV,Stratford-upon-Avon,52.19,-1.72,-914.02,-1302.92
STC,Strathcarron,57.42,-5.43,-5609.26,-11956.00
STW,Strawberry Hill,51.44,-0.34,827.07,234.42
STE,Streatham,51.43,-0.13,1090.22,262.79
SRC,Streatham Common,51.42,-0.14,1084.40,277.30
SRH,Streatham Hill,51.44,-0.13,1094.51,237.24
SHC,Streethouse,53.68,-1.40,-513.87,-4322.65
SRN,Strines,53.38,-2.03,-1314.02,-3708.89
STF,Stromeferry,57.35,-5.55,-5761.83,-11812.54
SOO,Strood,51.40,0.50,1889.19,322.41
STD,Stroud,51.74,-2.22,-1550.29,-386.70
STU,Sturry,51.30,1.12,2675.92,516.94
SYA,Styal,53.35,-2.24,-1576.93,-3654.38
SUY,Sudbury,52.04,0.74,2186.73,-981.06
SUD,Sudbury & Harrow Road,51.55,-0.32,856.98,0.58
SDH,Sudbury Hill Harrow,51.56,-0.34,831.43,-7.34
SUG,Sugar Loaf,52.08,-3.69,-3406.34,-1074.77
SUM,Summerston,55.90,-4.29,-4171.13,-8851.45
SUU,Sunbury,51.42,-0.42,728.23,278.06
SUN,Sunderland,54.91,-1.38,-491.71,-6827.10
SUP,Sundridge Park,51.41,0.02,1282.37,288.08
SNG,Sunningdale,51.39,-0.63,455.98,331.79
SNY,Sunnymeads,51.47,-0.56,549.61,172.95
SUR,Surbiton,51.39,-0.30,872.17,330.74
SUT,Sutton Coldfield,52.56,-1.82,-1051.31,-2058.22
SUC,Sutton Common,51.38,-0.20,1007.67,365.14
SPK,Sutton Parkway,53.11,-1.25,-318.79,-3177.33
SUO,Sutton (Surrey),51.36,-0.19,1014.76,397.83
SWL,Swale,51.39,0.75,2201.51,337.31
SAY,Swanley,51.39,0.17,1470.62,328.85
SWM,Swanscombe,51.45,0.31,1648.07,215.39
SWA,Swansea,51.63,-3.94,-3728.34,-143.36
SNW,Swanwick,50.88,-1.27,-344.35,1383.72
SWY,Sway,50.78,-1.61,-779.60,1569.07
SWG,Swaythling,50.94,-1.38,-484.17,1250.30
SWD,Swinderby,53.17,-0.70,367.90,-3290.15
SWI,Swindon,51.57,-1.79,-1001.56,-21.78
SWE,Swineshead,52.97,-0.19,1019.89,-2883.16
SNN,Swinton (Gr Manchester),53.51,-2.34,-1699.61,-3993.62
SWN,Swinton (Yorks),53.49,-1.31,-394.90,-3935.38
SYD,Sydenham,51.43,-0.05,1187.99,259.85
SYH,Sydenham Hill,51.43,-0.08,1154.99,248.72
SYL,Syon Lane,51.48,-0.33,845.39,148.72
SYS,Syston,52.69,-1.08,-112.00,-2322.52
TAC,Tackley,51.88,-1.30,-384.02,-665.33
TAD,Tadworth,51.29,-0.24,958.16,536.17
TAF,Taffs Well,51.54,-3.26,-2870.08,28.50
TAI,Tain,57.81,-4.05,-3868.16,-12753.70
TAL,Talsarnau,52.90,-4.07,-3888.44,-2749.69
TLB,Talybont,52.77,-4.10,-3924.41,-2481.39
TLC,Tal-y-Cafn,53.23,-3.82,-3572.41,-3409.95
TAB,Tame Bridge Parkway,52.55,-1.98,-1242.73,-2033.75
TAM,Tamworth,52.64,-1.69,-877.31,-2205.28
TAP,Taplow,51.52,-0.68,394.86,63.62
TAT,Tattenham Corner,51.31,-0.24,949.76,500.42
TAU,Taunton,51.02,-3.10,-2666.70,1082.18
TAY,Taynuilt,56.43,-5.24,-5369.95,-9934.85
TED,Teddington,51.42,-0.33,835.83,265.40
TEA,Tees-side Airport,54.52,-1.43,-546.01,-6037.83
TGM,Teignmouth,50.55,-3.49,-3163.16,2051.23
TFC,Telford Central,52.68,-2.44,-1830.53,-2294.91
TMC,Templecombe,51.00,-2.42,-1800.85,1128.07
TEN,Tenby,51.67,-4.71,-4696.04,-240.75
TEY,Teynham,51.33,0.81,2277.76,451.09
THD,Thames Ditton,51.39,-0.34,827.84,337.77
THA,Thatcham,51.39,-1.24,-315.68,327.93
THH,Thatto Heath,53.44,-2.76,-2233.21,-3834.18
THW,The Hawthorns,52.51,-1.96,-1227.30,-1936.84
TLK,The Lakes,52.36,-1.85,-1077.77,-1639.55
THE,Theale,51.43,-1.07,-102.93,247.23
TEO,Theobalds Grove,51.69,-0.03,1212.55,-280.51
TTF,Thetford,52.42,0.75,2198.89,-1761.13
THI,Thirsk,54.23,-1.37,-479.33,-5447.13
TBY,Thornaby,54.56,-1.30,-388.43,-6122.00
TNN,Thorne North,53.62,-0.97,26.88,-4199.88
TNS,Thorne South,53.60,-0.95,49.25,-4174.86
THO,Thornford,50.91,-2.58,-2006.00,1309.78
THB,Thornliebank,55.81,-4.31,-4196.43,-8671.77
TNA,Thornton Abbey,53.65,-0.32,847.46,-4277.09
TTH,Thornton Heath,51.40,-0.10,1128.85,316.92
THT,Thorntonhall,55.77,-4.25,-4119.87,-8585.79
TPB,Thorpe Bay,51.54,0.76,2219.97,35.07
TPC,Thorpe Culvert,53.12,0.20,1508.87,-3194.83
TLS,Thorpe-le-Soken,51.85,1.16,2725.72,-596.97
TBD,Three Bridges,51.12,-0.16,1052.74,892.16
TOK,Three Oaks,50.90,0.61,2032.32,1332.32
THU,Thurgarton,53.03,-0.96,39.91,-3004.17
THC,Thurnscoe,53.55,-1.31,-398.64,-4055.19
THS,Thurso,58.59,-3.53,-3204.73,-14334.22
TRS,Thurston,52.25,0.81,2280.38,-1417.05
TIL,Tilbury Town,51.46,0.35,1704.35,188.31
THL,Tile Hill,52.40,-1.60,-762.96,-1712.18
TLH,Tilehurst,51.47,-1.03,-45.83,169.68
TIP,Tipton,52.53,-2.07,-1355.92,-1987.92
TIR,Tir-Phil,51.72,-3.25,-2849.14,-338.47
TIS,Tisbury,51.06,-2.08,-1372.75,1006.41
TVP,Tiverton Parkway,50.92,-3.36,-2992.77,1298.41
TOD,Todmorden,53.71,-2.10,-1398.85,-4399.06
TOL,Tolworth,51.38,-0.28,902.88,362.61
TPN,Ton Pentre,51.65,-3.49,-3152.43,-189.51
TON,Tonbridge,51.19,0.27,1599.04,740.32
TDU,Tondu,51.55,-3.60,-3290.75,15.12
TNF,Tonfanau,52.61,-4.12,-3958.69,-2157.25
TNP,Tonypandy,51.62,-3.45,-3105.23,-132.39
TOO,Tooting,51.42,-0.16,1052.99,274.85
TOP,Topsham,50.69,-3.46,-3123.94,1770.06
TQY,Torquay,50.46,-3.54,-3225.11,2228.25
TRR,Torre,50.47,-3.55,-3228.61,2203.79
TOT,Totnes,50.44,-3.69,-3408.56,2279.84
TOM,Tottenham Hale,51.59,-0.06,1180.80,-68.32
TTN,Totton,50.92,-1.48,-617.88,1297.44
TWN,Town Green,53.54,-2.90,-2416.74,-4050.62
TRA,Trafford Park,53.45,-2.31,-1667.02,-3871.62
TRF,Trefforest,51.59,-3.33,-2948.72,-74.72
TRE,Trefforest Estate,51.57,-3.29,-2904.62,-27.51
TRH,Trehafod,51.61,-3.38,-3019.37,-112.80
TRB,Treherbert,51.67,-3.54,-3215.81,-239.32
TRY,Treorchy,51.66,-3.51,-3177.15,-209.34
TRM,Trimley,51.98,1.32,2925.44,-859.33
TRI,Tring,51.80,-0.62,469.39,-501.14
TRD,Troed-y-rhiw,51.71,-3.35,-2976.07,-321.19
TRN,Troon,55.54,-4.66,-4630.98,-8125.58
TRO,Trowbridge,51.32,-2.21,-1543.91,478.73
TRU,Truro,50.26,-5.06,-5148.97,2630.32
TUL,Tulloch,56.88,-4.70,-4689.19,-10858.80
TUH,Tulse Hill,51.44,-0.11,1123.70,234.34
TBW,Tunbridge Wells,51.13,0.26,1588.98,865.04
TUR,Turkey Street,51.67,-0.05,1196.88,-240.12
TUT,Tutbury & Hatton,52.86,-1.68,-870.76,-2668.30
TWI,Twickenham,51.45,-0.33,840.30,212.73
TWY,Twyford,51.48,-0.86,164.77,161.48
TYC,Ty Croes,53.22,-4.47,-4402.66,-3398.12
TGS,Ty Glas,51.52,-3.20,-2786.10,67.73
TYG,Tygwyn,52.89,-4.08,-3901.72,-2728.25
TYL,Tyndrum Lower,56.43,-4.71,-4706.25,-9940.03
TYS,Tyseley,52.45,-1.84,-1069.35,-1832.40
TYW,Tywyn,52.59,-4.09,-3920.58,-2100.27
UCK,Uckfield,50.97,0.10,1378.58,1194.20
UDD,Uddingston,55.82,-4.09,-3911.86,-8697.55
ULC,Ulceby,53.62,-0.30,874.59,-4205.96
ULL,Ulleskelf,53.85,-1.21,-278.73,-4683.88
ULV,Ulverston,54.19,-3.10,-2661.37,-5372.49
UMB,Umberleigh,51.00,-3.98,-3780.63,1137.00
UNI,University,52.45,-1.94,-1192.74,-1826.55
UHA,Uphall,55.92,-3.50,-3172.54,-8892.16
UPL,Upholland,53.53,-2.74,-2210.48,-4021.23
UPM,Upminster,51.56,0.25,1575.19,-9.33
UPH,Upper Halliford,51.41,-0.43,711.63,288.75
UHL,Upper Holloway,51.56,-0.13,1093.35,-18.02
UTY,Upper Tyndrum,56.43,-4.70,-4692.21,-9942.72
UWL,Upper Warlingham,51.31,-0.08,1158.01,501.78
UPT,Upton,53.39,-3.08,-2644.72,-3731.46
UPW,Upwey,50.65,-2.47,-1862.36,1847.05
URM,Urmston,53.45,-2.35,-1720.28,-3858.02
UTT,Uttoxeter,52.90,-1.86,-1092.30,-2734.93
VAL,Valley,53.28,-4.56,-4514.76,-3517.78
VXH,Vauxhall,51.49,-0.12,1101.19,139.76
VIR,Virginia Water,51.40,-0.56,545.54,311.39
WDO,Waddon,51.37,-0.12,1108.20,381.80
WAD,Wadhurst,51.07,0.31,1652.68,980.70
WFL,Wainfleet,53.11,0.23,1553.46,-3158.87
WKK,Wakefield Kirkgate,53.68,-1.49,-625.62,-4328.06
WKF,Wakefield Westgate,53.68,-1.51,-647.31,-4333.68
WKD,Walkden,53.52,-2.40,-1774.06,-4003.69
WLG,Wallasey Grove Road,53.43,-3.07,-2625.70,-3816.70
WLV,Wallasey Village,53.42,-3.07,-2624.96,-3806.28
WLT,Wallington,51.36,-0.15,1065.83,396.09
WAF,Wallyford,55.94,-3.01,-2556.42,-8935.44
WAM,Walmer,51.20,1.38,3005.54,716.10
WSL,Walsall,52.58,-1.98,-1253.54,-2097.86
WDN,Walsden,53.70,-2.10,-1404.93,-4363.16
WLC,Waltham Cross,51.69,-0.03,1223.01,-265.46
WHC,Walthamstow Central,51.58,-0.02,1231.45,-57.43
WMW,Walthamstow Queen's Road,51.58,-0.02,1226.44,-54.45
WAO,Walton (Merseyside),53.46,-2.97,-2494.21,-3874.19
WON,Walton on the Naze,51.85,1.27,2860.13,-593.76
WAL,Walton-on-Thames,51.37,-0.41,732.21,370.53
WAN,Wanborough,51.24,-0.67,412.29,632.16
WSW,Wandsworth Common,51.45,-0.16,1049.96,221.27
WWR,Wandsworth Road,51.47,-0.14,1082.48,172.99
WNT,Wandsworth Town,51.46,-0.19,1018.67,190.98
WNP,Wanstead Park,51.55,0.03,1289.75,6.29
WBL,Warblington,50.85,-0.97,33.43,1429.00
WAR,Ware,51.81,-0.03,1220.20,-515.85
WRM,Wareham,50.69,-2.12,-1418.59,1756.14
WGV,Wargrave,51.50,-0.88,148.05,115.38
WMN,Warminster,51.21,-2.18,-1496.35,709.09
WNH,Warnham,51.09,-0.33,839.93,941.10
WBQ,Warrington Bank Quay,53.39,-2.60,-2035.25,-3730.16
WAC,Warrington Central,53.39,-2.59,-2022.05,-3743.09
WRW,Warwick,52.29,-1.58,-744.00,-1490.97
WRP,Warwick Parkway,52.29,-1.61,-782.20,-1490.08
WTO,Water Orton,52.52,-1.74,-947.92,-1963.76
WBC,Waterbeach,52.26,0.20,1506.22,-1441.86
WTR,Wateringbury,51.25,0.42,1790.89,621.55
WLO,Waterloo (Merseyside),53.47,-3.03,-2569.83,-3912.37
WFH,Watford High Street,51.65,-0.39,761.19,-199.41
WFJ,Watford Junction,51.66,-0.40,755.11,-221.57
WFN,Watford North,51.68,-0.39,763.44,-246.37
WTG,Watlington,52.67,0.38,1741.38,-2278.75
WAS,Watton-at-Stone,51.86,-0.12,1105.18,-614.45
WNG,Waun-Gron Park,51.49,-3.23,-2827.98,135.67
WAV,Wavertree Tech Park,53.41,-2.92,-2440.84,-3771.75
WED,Wedgwood,52.95,-2.17,-1488.86,-2844.91
WEE,Weeley,51.85,1.12,2667.36,-607.84
WET,Weeton,53.92,-1.58,-743.18,-4825.63
WMG,Welham Green,51.74,-0.21,990.13,-369.95
WLI,Welling,51.46,0.10,1385.39,183.26
WEL,Wellingborough,52.30,-0.68,400.83,-1526.10
WLN,Wellington (Shropshire),52.70,-2.52,-1926.88,-2336.07
WLP,Welshpool,52.66,-3.14,-2714.42,-2246.80
WGC,Welwyn Garden City,51.80,-0.20,998.50,-501.77
WLW,Welwyn North,51.82,-0.19,1013.65,-547.51
WEM,Wem,52.86,-2.72,-2181.84,-2651.89
WMB,Wembley Central,51.55,-0.30,881.71,5.00
WCX,Wembley Stadium,51.55,-0.29,894.93,0.18
WMS,Wemyss Bay,55.88,-4.89,-4926.65,-8804.74
WND,Wendover,51.76,-0.75,311.39,-421.71
WNN,Wennington,54.12,-2.59,-2015.08,-5233.84
WSA,West Allerton,53.37,-2.91,-2419.87,-3696.75
WBP,West Brompton,51.49,-0.20,1009.42,137.43
WBY,West Byfleet,51.34,-0.51,617.31,439.20
WCL,West Calder,55.85,-3.57,-3254.62,-8759.23
WCY,West Croydon,51.38,-0.10,1126.85,359.33
WDT,West Drayton,51.51,-0.47,659.36,91.13
WDU,West Dulwich,51.44,-0.09,1141.58,232.60
WEA,West Ealing,51.51,-0.32,852.16,83.83
WEH,West Ham,51.53,0.01,1264.02,53.40
WHD,West Hampstead,51.55,-0.19,1014.80,14.90
WHP,West Hampstead Thameslink,51.55,-0.19,1013.22,12.57
WHR,West Horndon,51.57,0.34,1687.41,-26.82
WKB,West Kilbride,55.70,-4.85,-4879.43,-8438.02
WKI,West Kirby,53.37,-3.18,-2769.94,-3705.00
WMA,West Malling,51.29,0.42,1786.07,535.39
WNW,West Norwood,51.43,-0.10,1125.30,250.58
WRU,West Ruislip,51.57,-0.44,702.95,-30.50
WRN,West Runton,52.94,1.25,2831.73,-2813.31
WLD,West St Leonards,50.85,0.54,1939.45,1429.59
WSU,West Sutton,51.37,-0.20,997.76,384.32
WWI,West Wickham,51.38,-0.01,1238.34,353.47
WWO,West Worthing,50.82,-0.39,759.59,1500.49
WSB,Westbury (Wilts),51.27,-2.20,-1524.74,586.40
WCF,Westcliff,51.54,0.69,2131.11,35.55
WCB,Westcombe Park,51.48,0.02,1279.06,143.23
WHA,Westenhanger,51.09,1.04,2568.98,937.06
WTA,Wester Hailes,55.91,-3.28,-2897.13,-8882.53
WFI,Westerfield,52.08,1.17,2731.40,-1071.91
WES,Westerton,55.90,-4.33,-4225.75,-8863.14
WGA,Westgate-on-Sea,51.38,1.34,2949.24,353.17
WHG,Westhoughton,53.56,-2.52,-1935.43,-4077.42
WNM,Weston Milton,51.35,-2.94,-2465.87,419.75
WSM,Weston-super-Mare,51.34,-2.97,-2501.71,428.83
WRL,Wetheral,54.88,-2.83,-2324.68,-6782.95
WYB,Weybridge,51.36,-0.46,677.71,393.26
WEY,Weymouth,50.62,-2.45,-1848.12,1912.74
WBR,Whaley Bridge,53.33,-1.98,-1253.39,-3617.51
WHE,Whalley,53.82,-2.41,-1794.21,-4624.04
WTS,Whatstandwell,53.08,-1.50,-645.92,-3113.97
WFF,Whifflet,55.85,-4.02,-3825.81,-8759.01
WHM,Whimple,50.77,-3.35,-2985.66,1603.04
WNL,Whinhill,55.94,-4.75,-4746.57,-8931.53
WHN,Whiston,53.41,-2.80,-2280.08,-3787.90
WTB,Whitby,54.48,-0.62,478.29,-5969.54
WHT,Whitchurch (Cardiff),51.52,-3.22,-2818.52,69.56
WCH,Whitchurch (Hants),51.24,-1.34,-435.82,646.65
WTC,Whitchurch (Shropshire),52.97,-2.67,-2122.04,-2879.58
WHL,White Hart Lane,51.61,-0.07,1166.91,-102.40
WNY,White Notley,51.84,0.60,2010.20,-578.93
WCR,Whitecraigs,55.79,-4.31,-4194.48,-8629.89
WTH,Whitehaven,54.55,-3.59,-3279.83,-6108.93
WTL,Whitland,51.82,-4.61,-4579.30,-536.37
WBD,Whitley Bridge,53.70,-1.16,-208.29,-4369.13
WTE,Whitlocks End,52.39,-1.85,-1085.06,-1705.51
WHI,Whitstable,51.36,1.03,2563.41,401.80
WLE,Whittlesea,52.55,-0.12,1107.07,-2027.66
WLF,Whittlesford Parkway,52.10,0.17,1466.05,-1118.21
WTN,Whitton,51.45,-0.36,804.22,214.29
WWL,Whitwell,53.28,-1.20,-260.27,-3515.90
WHY,Whyteleafe,51.31,-0.08,1153.96,498.84
WHS,Whyteleafe South,51.30,-0.08,1159.60,511.89
WCK,Wick,58.44,-3.10,-2661.44,-14032.06
WIC,Wickford,51.62,0.52,1913.22,-122.75
WCM,Wickham Market,52.15,1.40,3025.52,-1215.03
WDD,Widdrington,55.24,-1.62,-787.48,-7511.46
WID,Widnes,53.38,-2.73,-2200.53,-3715.85
WMR,Widney Manor,52.40,-1.77,-987.48,-1713.87
WGN,Wigan North Western,53.54,-2.63,-2073.55,-4051.91
WGW,Wigan Wallgate,53.54,-2.63,-2073.61,-4054.73
WGT,Wigton,54.83,-3.16,-2745.38,-6671.90
WMI,Wildmill,51.52,-3.58,-3270.62,69.09
WIJ,Willesden Junction,51.53,-0.24,948.93,46.36
WLM,Williamwood,55.79,-4.29,-4169.14,-8637.61
WIL,Willington,52.85,-1.56,-720.60,-2646.46
WMC,Wilmcote,52.22,-1.76,-964.15,-1360.44
WML,Wilmslow,53.33,-2.23,-1559.06,-3610.61
WNE,Wilnecote,52.61,-1.68,-867.48,-2151.75
WIM,Wimbledon,51.42,-0.21,995.43,271.39
WBO,Wimbledon Chase,51.41,-0.21,985.90,295.90
WSE,Winchelsea,50.93,0.70,2144.75,1265.34
WIN,Winchester,51.07,-1.32,-412.45,993.44
WNF,Winchfield,51.28,-0.91,109.52,549.79
WIH,Winchmore Hill,51.63,-0.10,1128.99,-161.30
WDM,Windermere,54.38,-2.90,-2415.34,-5755.57
WNC,Windsor & Eton Central,51.48,-0.61,484.64,145.71
WNR,Windsor & Eton Riverside,51.49,-0.61,489.51,140.85
WNS,Winnersh,51.43,-0.88,147.62,253.68
WTI,Winnersh Triangle,51.44,-0.89,129.31,240.52
WSF,Winsford,53.19,-2.49,-1898.34,-3332.84
WSH,Wishaw,55.77,-3.93,-3709.18,-8592.64
WTM,Witham,51.81,0.64,2064.92,-511.81
WTY,Witley,51.13,-0.65,439.87,859.07
WTT,Witton,52.51,-1.88,-1126.10,-1950.84
WVF,Wivelsfield,50.96,-0.12,1103.76,1204.17
WIV,Wivenhoe,51.86,0.96,2465.83,-614.83
WOB,Woburn Sands,52.02,-0.65,429.37,-944.13
WOK,Woking,51.32,-0.56,552.21,481.49
WKM,Wokingham,51.41,-0.84,191.02,292.51
WOH,Woldingham,51.29,-0.05,1190.99,539.18
WVH,Wolverhampton,52.59,-2.12,-1423.98,-2104.88
WOL,Wolverton,52.07,-0.80,239.43,-1041.38
WOM,Wombwell,53.52,-1.42,-534.63,-3999.22
WDE,Wood End,52.34,-1.84,-1076.16,-1608.78
WST,Wood Street,51.59,0.00,1254.11,-65.06
WDB,Woodbridge,52.09,1.32,2923.21,-1091.45
WGR,Woodgrange Park,51.55,0.05,1313.67,12.27
WDL,Woodhall,55.93,-4.66,-4631.11,-8916.93
WDH,Woodhouse,53.36,-1.36,-460.32,-3685.78
WDS,Woodlesford,53.76,-1.44,-568.24,-4486.61
WLY,Woodley,53.43,-2.09,-1390.78,-3819.27
WME,Woodmansterne,51.32,-0.15,1061.50,480.37
WSR,Woodsmoor,53.39,-2.14,-1451.51,-3731.26
WOO,Wool,50.68,-2.22,-1552.92,1779.07
WLS,Woolston,50.90,-1.38,-484.99,1336.34
WWA,Woolwich Arsenal,51.49,0.07,1344.95,132.26
WWD,Woolwich Dockyard,51.49,0.05,1325.71,129.70
WWW,Wooten Wawen,52.27,-1.78,-1000.36,-1448.85
WOF,Worcester Foregate Street,52.19,-2.22,-1553.27,-1304.29
WCP,Worcester Park,51.38,-0.25,946.52,353.57
WOS,Worcester Shrub Hill,52.19,-2.21,-1537.67,-1303.90
WKG,Workington,54.65,-3.56,-3243.86,-6296.51
WRK,Worksop,53.31,-1.12,-163.10,-3579.64
WOR,Worle,51.36,-2.91,-2423.25,400.88
WPL,Worplesdon,51.29,-0.58,519.80,541.50
WRT,Worstead,52.78,1.40,3032.53,-2490.91
WRH,Worthing,50.82,-0.38,780.85,1500.20
WRB,Wrabness,51.94,1.17,2738.72,-783.77
WRY,Wraysbury,51.46,-0.54,571.23,197.79
WRE,Wrenbury,53.02,-2.60,-2026.90,-2984.80
WRS,Wressle,53.77,-0.92,87.74,-4519.16
WXC,Wrexham Central,53.05,-3.00,-2536.34,-3038.77
WRX,Wrexham General,53.05,-3.00,-2540.63,-3047.01
WYE,Wye,51.19,0.93,2431.91,753.41
WYM,Wylam,54.97,-1.81,-1037.66,-6968.63
WYL,Wylde Green,52.55,-1.83,-1060.15,-2020.50
WMD,Wymondham,52.56,1.12,2670.10,-2058.03
WYT,Wythall,52.38,-1.87,-1103.69,-1681.74
YAL,Yalding,51.23,0.41,1777.86,668.92
YRD,Yardley Wood,52.42,-1.85,-1088.65,-1765.95
YRM,Yarm,54.49,-1.35,-454.67,-5988.19
YAE,Yate,51.54,-2.43,-1819.84,28.90
YAT,Yatton,51.39,-2.83,-2319.74,333.69
YEO,Yeoford,50.78,-3.73,-3455.81,1584.97
YVJ,Yeovil Junction,50.92,-2.61,-2048.31,1283.74
YVP,Yeovil Pen Mill,50.94,-2.61,-2048.64,1243.43
YET,Yetminster,50.90,-2.57,-1997.48,1341.96
YNW,Ynyswen,51.66,-3.52,-3197.22,-224.50
YOK,Yoker,55.89,-4.39,-4292.19,-8838.56
YRK,York,53.96,-1.09,-125.96,-4896.51
YRT,Yorton,52.81,-2.74,-2204.23,-2555.40
YSM,Ystrad Mynach,51.64,-3.24,-2842.71,-175.52
YSR,Ystrad Rhondda,51.64,-3.47,-3127.77,-181.04
,,,,,
,,,,,
,,,,,
,,,,,
,,,,,
,,,,,
,,,,,
,,,,,
,,,,,
,,,,,
,,,,,
,,,,,
,,,,,
,,,,,
,,,,,
,,,,,
,,,,,
,,,,,
,,,,,
,,,,,
,,,,,
,,,,,
,,,,,
,,,,,
,,,,,
,,,,,
,,,,,
,,,,,
,,,,,
,,,,,
,,,,,
,,,,,
,,,,,
,,,,,
,,,,,
,,,,,
,,,,,
,,,,,
,,,,,
,,,,,
,,,,,
,,,,,
,,,,,
,,,,,
,,,,,
,,,,,
,,,,,
,,,,,
,,,,,
,,,,,
,,,,,
,,,,,
,,,,,
,,,,,
,,,,,
,,,,,
,,,,,
,,,,,
,,,,,
,,,,,
,,,,,
,,,,,
,,,,,
,,,,,
,,,,,
,,,,,
,,,,,
,,,,,
,,,,,
,,,,,
,,,,,
,,,,,
,,,,,
,,,,,
,,,,,
,,,,,
,,,,,
,,,,,
,,,,,
,,,,,
,,,,,
,,,,,
,,,,,
,,,,,
,,,,,
,,,,,
,,,,,
,,,,,
,,,,,
,,,,,
,,,,,
,,,,,
,,,,,
,,,,,
,,,,,
,,,,,
,,,,,
,,,,,
,,,,,
,,,,,
,,,,,
,,,,,
,,,,,
,,,,,
,,,,,
,,,,,
,,,,,
,,,,,
,,,,,
,,,,,
,,,,,
,,,,,
,,,,,
,,,,,
,,,,,
,,,,,
,,,,,
